Id,Source,Site name,Address,Zip,Phone,Fax,Program Name,Length of Day,IDHS Provider ID,Agency,Neighborhood,Funded Enrollment,Program Option,Number per Site EHS,Number per Site HS,Director,Head Start Fund,Eearly Head Start Fund,CC fund,Progmod,Website,Executive Director,Center Director,ECE Available Programs,NAEYC Valid Until,NAEYC Program Id,Email Address,Ounce of Prevention Description,Purple binder service type,Column,Column2
3327,purple_binder_early_childhood.csv, Precious Infants & Tots Learning Center,624 E 47th Street ,60653,2682685,,,,,,,,,,,,,,,,,,,,,,,,,,Early Head Start
608,CPS_Early_Childhood_Portal_scrape.csv, Board Trustees-City Colleges of Chicago - Malcolm X College,1900 W Van Buren St ,,8507000,,Head Start,HALF DAY/FULL DAY,,,,,,,,,,,,,,,,,,,,,,,
1802,chapin_dfss_providers_2011_070212.csv,LUTHERAN SOCIAL SERVICES OF ILLINOIS ENGLEWOOD MESSIAH,1910 W 64TH STREET ,60636,4365110,,,,,,,LUTHERAN SOCIAL SERVICES OF ILLINOIS,WEST ENGLEWOOD,,,,,Delphine Whittlesey,Yes,No,No,,,,,,,,,,
1259,CPS_Early_Childhood_Portal_scrape.csv, Gads Hill Center - Sinai Community/Ogden,2653 W Ogden Ave ,,5211196,,State Pre-Kindergarten,HALF DAY/FULL DAY,,,,,,,,,,,,,,,,,,,,,,,
2458,ECE Chicago Find a School scrape.csv, Dever,3436 N. Osceola ,60634,5343090,,,,,,Dunning,,,,,,,,,,,,,PFA-REG,,,,,,,
676,CPS_Early_Childhood_Portal_scrape.csv, Carole Robertson Center For Learning - Carole Robertson Center 2929,2929 W 19th St ,,5211600,,Head Start,HALF DAY/FULL DAY,,,,,,,,,,,,,,,,,,,,,,,
942,CPS_Early_Childhood_Portal_scrape.csv, Pilsen,1420 W. 17Th St. ,,5347675,,Prekindergarten For All,3-4 hours,,,,,,,,,,,,,,,,,,,,,,,
422,CPS_Early_Childhood_Portal_scrape.csv, Granny's Daycare Center,645 W. 127th St. ,,8485827,,Community Partnerships,"8-11 Hours, varies by facility",,,,,,,,,,,,,,,,,,,,,,,
2914,NAEYC_accreditation.csv, Ezzard Charles School,7946 South Ashland Avenue  ,60620,4870227,,,,,,,,,,,,,,,,,,,,,,08/31/13,486942,ezzardezzi@aol.com,,
220,CPS_Early_Childhood_Portal_scrape.csv," Montessori Academy and Association, Inc. 2",10232 S. Halsted St. ,,2331100,,Community Partnerships,"8-11 Hours, varies by facility",,,,,,,,,,,,,,,,,,,,,,,
3100,purple_binder_early_childhood.csv, Chicago Youth Centers - ABC Youth Center,3415 W 13th Place ,60623,7625655,,,,,,,,,,,,,,,,,,,,,,,,,,Child Care
2389,ECE Chicago Find a School scrape.csv, Chase,2021 N. Point St. ,60647,5344185,,,,,,Logan Square,,,,,,,,,,,,,HS-HD,,,,,,,
2500,ECE Chicago Find a School scrape.csv, Eyes on the Future II,1773 W. Lunt ,60626,7628045,,,,,,Rogers Park,,,,,,,,,,,,,CP,,,,,,,
332,CPS_Early_Childhood_Portal_scrape.csv, Concordia Child Care Center Avondale,3300 N. Whipple ,,4631600,,Community Partnerships,"8-11 Hours, varies by facility",,,,,,,,,,,,,,,,,,,,,,,
3027,purple_binder_early_childhood.csv, Abraham Lincoln Centre,3858 S Cottage Grove Avenue ,60653,3736600,,,,,,,,,,,,,,,,,,,,,,,,,,Child Care
724,CPS_Early_Childhood_Portal_scrape.csv, Peck,3826 W. 58Th ,,5352450,,Head Start,3-4 hours,,,,,,,,,,,,,,,,,,,,,,,
1913,DFSS_AgencySiteLies_2012.csv,"Ada S. McKinley
Community Services McKinley-Roseland",11410 S. Edbrooke ,60628,4681918,,,,,,,"Ada S. McKinley
Community Services",,,,,,,,,,,www.adasmckinley.org,"George Jones, Jr.",Anna Luna,,,,,,
1280,CPS_Early_Childhood_Portal_scrape.csv, Hull House Association - Leclaire-Ryder Day Care / Hull House,4410 S Laporte Ave ,,7675170,,State Pre-Kindergarten,HALF DAY/FULL DAY,,,,,,,,,,,,,,,,,,,,,,,
3083,purple_binder_early_childhood.csv, Centers for New Horizons Raymond School,3663 S Wabash Avenue ,60653,3735673,,,,,,,,,,,,,,,,,,,,,,,,,,Child Care
2342,ECE Chicago Find a School scrape.csv, Brighton Park,3825 S. Washtenaw Ave. ,60632,5357235,,,,,,Brighton Park,,,,,,,,,,,,,PFA-REG,,,,,,,
2003,DFSS_AgencySiteLies_2012.csv,"Chicago Public Schools Funston, Frederick",2010 N Central Park ,60647,5344125,,,,,,,Chicago Public Schools,,,,,,,,,,,www.cps.edu,Paula Cottone,Ms. Nilma Osiecki,,,,,,
1013,CPS_Early_Childhood_Portal_scrape.csv, Jahn,3149 N. Wolcott ,,5345500,,Prekindergarten For All,3-4 hours,,,,,,,,,,,,,,,,,,,,,,,
1500,chapin_dfss_providers_2011_070212.csv,"CHICAGO PUBLIC SCHOOLS DVORAK MATH & SCIENCE TECH ACADEMY, ANTON",3615 WEST 16TH ,60623,5341690,,,,,,,CHICAGO PUBLIC SCHOOLS,NORTH LAWNDALE,,,,,Ms. Alma  Thompson,Yes,No,No,,,,,,,,,,
607,CPS_Early_Childhood_Portal_scrape.csv, Board Trustees-City Colleges of Chicago - Malcolm X College,1900 W Van Buren St ,,8507000,,Head Start,HALF DAY/FULL DAY,,,,,,,,,,,,,,,,,,,,,,,
2959,NAEYC_accreditation.csv, Norwood Park Preschool for All,5900 North Nina Avenue  ,60631,5341162,,,,,,,,,,,,,,,,,,http://www.norwoodparkschool.com,,,,07/01/16,489732,nmtokarz@cps.edu,,
3032,purple_binder_early_childhood.csv, Ada S. McKinley Community Services,4543 S Princeton Avenue ,60609,6249799,,,,,,,,,,,,,,,,,,,,,,,,,,Child Care
1266,CPS_Early_Childhood_Portal_scrape.csv, YMCA of Metropolitan Chicago - South Chicago YMCA,3039 E 91st St ,,7219100,,State Pre-Kindergarten,HALF DAY/FULL DAY,,,,,,,,,,,,,,,,,,,,,,,
1348,IDHS_child_care_provider_list.csv, Kiddie Kollege of Fairfield,"2226 Mt. Vernon Road
P.O. Box 362
Fairfield",62837,8477102,"(618)
847-7212",,,3125-2563-7433-009,,,,,,,,,,,,,,,,,,,,,,
2709,ECE Chicago Find a School scrape.csv, Palmer,5051 N. Kenneth ,60630,5343704,,,,,,Albany Park,,,,,,,,,,,,,PFA-REG,,,,,,,
935,CPS_Early_Childhood_Portal_scrape.csv, Owens,12450 S. State St. ,,5355661,,Prekindergarten For All,3-4 hours,,,,,,,,,,,,,,,,,,,,,,,
2818,ECE Chicago Find a School scrape.csv, Twain,5134 S. Lotus Ave ,60638,5352290,,,,,,Garfield Ridge,,,,,,,,,,,,,PFA-REG,,,,,,,
2397,ECE Chicago Find a School scrape.csv, Chicago Commons PauloFreire,1653 W. 43rd St ,60609,8266260,,,,,,New City,,,,,,,,,,,,,CP,,,,,,,
2291,DFSS_AgencySiteLies_2012.csv,YMCA of Metropolitan Chicago Wabash,3763 S. Wabash Ave. ,60653,2850020,,,,,,,YMCA of Metropolitan Chicago,,,,,,,,,,,www.ymcachicago.org,Dorothy Cole-Gary,LaVonna Loving,,,,,,
51,CPS_Early_Childhood_Portal_scrape.csv, Church of God True Believers - Church of God Day Care,1738 W Marquette Rd ,,4715222,,Child Care,EXTENDED DAY,,,,,,,,,,,,,,,,,,,,,,,
1756,chapin_dfss_providers_2011_070212.csv,HENRY BOOTH HOUSE LIVING WITNESS,4259 N LARAMIE ,60641,,,,,,,,HENRY BOOTH HOUSE,PORTAGE PARK,,,,,,Yes,No,No,,,,,,,,,,
183,CPS_Early_Childhood_Portal_scrape.csv, Human Resources Development Institute - Human Resources Development Institute,8151 S Western Ave ,,8631145,,Child Care,EXTENDED DAY,,,,,,,,,,,,,,,,,,,,,,,
2244,DFSS_AgencySiteLies_2012.csv,Mary Crane League Mary Crane Center (St. Martin De Porres),6423 S. Woodlawn ,60637,9388130,,,,,,,Mary Crane League,,,,,,,,,,,www.marycrane.org,Lavetter Terry,Victoria Harbin,,,,,,
1798,chapin_dfss_providers_2011_070212.csv,HULL HOUSE ASSOCIATION UPTOWN - EAST,1020 W BRYN MAWR ,60660,7695753,,,,,,,HULL HOUSE ASSOCIATION,EDGEWATER,,,,,Martha Abarca,Yes,No,No,7027PS(HS Collaboration with Childcare & PreK),,,,,,,,,
1661,chapin_dfss_providers_2011_070212.csv,EL VALOR FCCH-PATRICIA COBA,2719 S MILLARD ,60623,5222345,,,,,,,EL VALOR,SOUTH LAWNDALE,,,,,Nina Duena,No,No,No,"5991IT(Child Care Home IT), 5991PS(Child Care Home PS), 5991",,,,,,,,,
664,CPS_Early_Childhood_Portal_scrape.csv, Henry Booth House - Hegewisch,2725 E 130th ,,,,Head Start,HALF DAY/FULL DAY,,,,,,,,,,,,,,,,,,,,,,,
2956,NAEYC_accreditation.csv, Northeastern Illinois University Child Care Center,5500 North Saint Louis Avenue  ,60625,4424540,,,,,,,,,,,,,,,,,,http://www.neiu.edu/neiuccc,,,,01/31/13,125305,E-Weber1@neiu.edu,,
2631,ECE Chicago Find a School scrape.csv, Lutheran Social Services-Winthrop,4848 N. Winthrop ,60640,8783210,,,,,,Uptown,,,,,,,,,,,,,CP,,,,,,,
2041,DFSS_AgencySiteLies_2012.csv,"Chicago Public Schools McKay, Francis M.",7060 S. Washtenaw ,60629,5359340,,,,,,,Chicago Public Schools,,,,,,,,,,,www.cps.edu,Paula Cottone,Mrs. Dawn Prather-Hawk,,,,,,
2911,NAEYC_accreditation.csv, El Hogar del Nino,1710 South Loomis Street  ,60608,7335584,,,,,,,,,,,,,,,,,,http://www.elhogardelnino.org,,,,05/01/16,274925,elhogardelnino@gmail.com,,
382,CPS_Early_Childhood_Portal_scrape.csv, Archdiocese of Chicago - St. Thomas of Canterbury,4827 N. Kenmore ,,2810018,,Community Partnerships,"8-11 Hours, varies by facility",,,,,,,,,,,,,,,,,,,,,,,
3304,purple_binder_early_childhood.csv, Ferguson CPC,1420 N Hudson Avenue ,60610,5348580,,,,,,,,,,,,,,,,,,,,,,,,,,Child Parent Center
972,CPS_Early_Childhood_Portal_scrape.csv, Chappell,2135 W. Foster ,,5342390,,Prekindergarten For All,3-4 hours,,,,,,,,,,,,,,,,,,,,,,,
1554,chapin_dfss_providers_2011_070212.csv,"CHICAGO PUBLIC SCHOOLS NASH, HENRY H.",4837 W ERIE ST ,60644,5346125,,,,,,,CHICAGO PUBLIC SCHOOLS,AUSTIN,,,,,Ms. Tresa D.  Dunbar,Yes,No,No,,,,,,,,,,
2390,ECE Chicago Find a School scrape.csv, Chavez (Yr Round),4747 S. Marshfield ,60609,5354600,,,,,,New City,,,,,,,,,,,,,PFA-REG,,,,,,,
1342,IDHS_child_care_provider_list.csv," First Step
Day¬¨‚Ä†Care Center","1300 Pearl Street
Belvidere",6100,5446560,"(815)
544-6560",,,6896-1416-5433-006,,,,,,,,,,,,,,,,,,,,,,
499,CPS_Early_Childhood_Portal_scrape.csv, YMCA of Metropolitan Chicago - North Lawndale YMCA,3449 W Arthington St ,,6380773,,Early Head Start,EXTENDED DAY,,,,,,,,,,,,,,,,,,,,,,,
2764,ECE Chicago Find a School scrape.csv, Schubert,2727 N. Long ,60639,5343080,,,,,,Belmont Cragin,,,,,,,,,,,,,PFA-REG TS,,,,,,,
101,CPS_Early_Childhood_Portal_scrape.csv, Metropolitan Family Services - Midway Children's Center (Chicago Lawn),3215 W 63rd St ,,8842350,,Child Care,EXTENDED DAY,,,,,,,,,,,,,,,,,,,,,,,
949,CPS_Early_Childhood_Portal_scrape.csv," Colemon, Johnnie",1441 W. 119th St. ,,5353975,,Prekindergarten For All,3-4 hours,,,,,,,,,,,,,,,,,,,,,,,
2066,DFSS_AgencySiteLies_2012.csv,"Chicago Public Schools Ryerson, Martin A.",646 N Lawndale ,60624,5346700,,,,,,,Chicago Public Schools,,,,,,,,,,,www.cps.edu,Paula Cottone,Mr. Lorenzo Russell,,,,,,
1813,chapin_dfss_providers_2011_070212.csv,MARCY NEWBERRY ASSOCIATION FCCH-MELVIN TURNER,1508 W MONITOR ,60651,,,,,,,,MARCY NEWBERRY ASSOCIATION,AUSTIN,,,,,,No,Yes,No,"5969IP(EHS Collaboration Enhanced Home IP), 5970IT(Child Car",,,,,,,,,
2966,NAEYC_accreditation.csv, Parkway Community House Child Care,500 East 67th Street  ,60637,4931306,,,,,,,,,,,,,,,,,,http://hullhouse.org,,,,04/30/13,486671,cknighten@hullhouse.org,,
543,CPS_Early_Childhood_Portal_scrape.csv, Chicago State University - Academy of Early Education,124 E 113th St ,,7858163,,Head Start,HALF DAY/FULL DAY,,,,,,,,,,,,,,,,,,,,,,,
2652,ECE Chicago Find a School scrape.csv, McDowell,1419 E. 89th St. ,60619,5356404,,,,,,Calumet Heights,,,,,,,,,,,,,HS-FD,,,,,,,
600,CPS_Early_Childhood_Portal_scrape.csv, Chicago Commons Association - Guadalupano Family Center,1814 S Paulina St ,,6663883,,Head Start,HALF DAY/FULL DAY,,,,,,,,,,,,,,,,,,,,,,,
2224,DFSS_AgencySiteLies_2012.csv,Lutheran Social Services of Illinois ARRA Home Based Initiative - Roseland Christian Ministries,10 W 35th St 15th Floor ,60616,9494789,,,,,,,Lutheran Social Services of Illinois,,,,,,,,,,,www.lssi.org,John Schnier,,,,,,,
26,CPS_Early_Childhood_Portal_scrape.csv, Easter Seals Society of Metropolitan Chicago - Stepping Stones Early/Childhood Lear,1300 E 75th St ,,4930000,,Child Care,EXTENDED DAY,,,,,,,,,,,,,,,,,,,,,,,
1197,CPS_Early_Childhood_Portal_scrape.csv, Albany Park Community Center - Albany Park Day Care - Ainslie,3401 W Ainslie St ,,5395907,,School Age,PART DAY/FULL DAY,,,,,,,,,,,,,,,,,,,,,,,
1623,chapin_dfss_providers_2011_070212.csv,CHRISTOPHER HOUSE GREENVIEW,2507 N GREENVIEW ,60614,4721083,,,,,,,CHRISTOPHER HOUSE,LINCOLN PARK,,,,,Aimee Washington,Yes,No,No,"2681IT(Child Care IT Center), 3406PS(HS Collaboration with C",,,,,,,,,
2739,ECE Chicago Find a School scrape.csv, Ray,5631 S Kimbark ,60637,5350970,,,,,,Hyde Park,,,,,,,,,,,,,PFA-REG,,,,,,,
2620,ECE Chicago Find a School scrape.csv, Linne,3221 N. Sacramento ,60618,5345262,,,,,,Avondale,,,,,,,,,,,,,HS-HD,,,,,,,
247,CPS_Early_Childhood_Portal_scrape.csv, Little Kiddies Day Care,1447 W. Devon ,,4657702,,Community Partnerships,"8-11 Hours, varies by facility",,,,,,,,,,,,,,,,,,,,,,,
744,CPS_Early_Childhood_Portal_scrape.csv, McCorkle,4421 S. State St. ,,5351793,,Head Start,5-6 hours,,,,,,,,,,,,,,,,,,,,,,,
2300,ECE Chicago Find a School scrape.csv, Altgeld,7007 S. Loomis ,60636,5353250,,,,,,West Englewood,,,,,,,,,,,,,HS-HD,,,,,,,
540,CPS_Early_Childhood_Portal_scrape.csv, Songhai,11725 S. Perry ,,5355547,,Head Start,3-4 hours,,,,,,,,,,,,,,,,,,,,,,,
717,CPS_Early_Childhood_Portal_scrape.csv, Monroe,3651 W. Schubert ,,5344155,,Head Start,3-4 hours,,,,,,,,,,,,,,,,,,,,,,,
937,CPS_Early_Childhood_Portal_scrape.csv, De Diego,1313 N. Claremont ,,5344451,,Prekindergarten For All,5-6 hours,,,,,,,,,,,,,,,,,,,,,,,
3288,purple_binder_early_childhood.csv, Woodlawn T.W.O. Infant Toddler School,1445 E 65th Street ,60637,3245880,,,,,,,,,,,,,,,,,,,,,,,,,,Child Care
3278,purple_binder_early_childhood.csv, Trinity Day Care Center,532 W 95th Street ,60628,4883511,,,,,,,,,,,,,,,,,,,,,,,,,,Child Care
276,CPS_Early_Childhood_Portal_scrape.csv, Loop Learning Center,2001 S. Michigan Ave. ,,2258828,,Community Partnerships,"8-11 Hours, varies by facility",,,,,,,,,,,,,,,,,,,,,,,
1957,DFSS_AgencySiteLies_2012.csv,"Chicago Commons
Association Rainbow Daycare",3250 W Irving Park Rd ,60618,4788182,,,,,,,"Chicago Commons
Association",,,,,,,,,,,www.chicagocommons.org,Dan Valliere,James Limson,,,,,,
844,CPS_Early_Childhood_Portal_scrape.csv, Stagg,7424 S. Morgan ,,5353565,,Head Start,5-6 hours,,,,,,,,,,,,,,,,,,,,,,,
693,CPS_Early_Childhood_Portal_scrape.csv, Linne,3221 N. Sacramento ,,5345262,,Head Start,3-4 hours,,,,,,,,,,,,,,,,,,,,,,,
3224,purple_binder_early_childhood.csv, Marcy Newberry Association - Rockwell Center,2540 W Jackson Boulevard ,60612,6662931,,,,,,,,,,,,,,,,,,,,,,,,,,Child Care
437,CPS_Early_Childhood_Portal_scrape.csv, Archdiocese of Chicago - Queen of the Universe,7130 S. Hamlin ,,5824266,,Community Partnerships,"8-11 Hours, varies by facility",,,,,,,,,,,,,,,,,,,,,,,
1156,CPS_Early_Childhood_Portal_scrape.csv, Schmid,9755 S. Greenwood ,,5356235,,Prekindergarten For All,3-4 hours,,,,,,,,,,,,,,,,,,,,,,,
614,CPS_Early_Childhood_Portal_scrape.csv, El Valor - Guadalupe Reyes Children & Family Center,1951 W 19th St ,,9972021,,Head Start,HALF DAY/FULL DAY,,,,,,,,,,,,,,,,,,,,,,,
888,CPS_Early_Childhood_Portal_scrape.csv, Salvation Army - Red Shield,945 W 69th St ,,3583203,,Head Start,HALF DAY/FULL DAY,,,,,,,,,,,,,,,,,,,,,,,
1279,CPS_Early_Childhood_Portal_scrape.csv, Abraham Lincoln Centre - Lincoln - King,4314 S Cottage Grove Ave ,,7472310,,State Pre-Kindergarten,HALF DAY/FULL DAY,,,,,,,,,,,,,,,,,,,,,,,
3254,purple_binder_early_childhood.csv, Salvation Army - Columbus Park School,500 S Central Avenue ,60644,9214162,,,,,,,,,,,,,,,,,,,,,,,,,,Child Care
2175,DFSS_AgencySiteLies_2012.csv,Gads Hill Center M & E Daycare - 79th Street Day Care,3728 W 79th St. ,60652,5857979,,,,,,,Gads Hill Center,,,,,,,,,,,www.gadshillcenter.org,Barbara Castellan,Lisa Pearson,,,,,,
2863,ECE Chicago Find a School scrape.csv, YWCA Harris,6200 S. Drexel ,60637,6670014,,,,,,Woodlawn,,,,,,,,,,,,,CP,,,,,,,
691,CPS_Early_Childhood_Portal_scrape.csv, Curtis,32 E. 115Th St. ,,5355050,,Head Start,5-6 hours,,,,,,,,,,,,,,,,,,,,,,,
2639,ECE Chicago Find a School scrape.csv, Marsh,9810 S. Exchange ,60617,5356430,,,,,,South Deering,,,,,,,,,,,,,PFA-REG,,,,,,,
2443,ECE Chicago Find a School scrape.csv, Cooper,1624 W. 19Th St. ,60608,5347205,,,,,,Lower West Side,,,,,,,,,,,,,HS-HD,,,,,,,
191,CPS_Early_Childhood_Portal_scrape.csv, Haymarket Center - Haymarket Center,932 W Washington Blvd ,,2267984,,Child Care,EXTENDED DAY,,,,,,,,,,,,,,,,,,,,,,,
706,CPS_Early_Childhood_Portal_scrape.csv, YMCA of Metropolitan Chicago - North Lawndale YMCA,3449 W Arthington St ,,6380773,,Head Start,HALF DAY/FULL DAY,,,,,,,,,,,,,,,,,,,,,,,
2445,ECE Chicago Find a School scrape.csv, Courtenay,1726 W. Berteau ,60613,5345790,,,,,,Lake View,,,,,,,,,,,,,PFA-REG,,,,,,,
203,CPS_Early_Childhood_Portal_scrape.csv, Parker CPC,328 W. 69Th ,,5353853,,Child Parent Center,3-4 hours,,,,,,,,,,,,,,,,,,,,,,,
275,CPS_Early_Childhood_Portal_scrape.csv, New Zion Child Care Academy,1960 W. 13th St. ,,7331263,,Community Partnerships,"8-11 Hours, varies by facility",,,,,,,,,,,,,,,,,,,,,,,
150,CPS_Early_Childhood_Portal_scrape.csv, Onward Neighborhood House - Belmont-Cragin,5423 W Diversey ,,,,Child Care,EXTENDED DAY,,,,,,,,,,,,,,,,,,,,,,,
1851,chapin_dfss_providers_2011_070212.csv,NORTH AVENUE DAY NURSERY FCCH-VALERIE MARTIN,2043 W PIERCE ,60622,,,,,,,,NORTH AVENUE DAY NURSERY,WEST TOWN,,,,,,No,Yes,Yes,"5757IP(EHS Collaboration Enhanced Home IP), 5837IT(Child Car",,,,,,,,,
2019,DFSS_AgencySiteLies_2012.csv,"Chicago Public Schools Hughes, Langston",240 W. 104th St. ,60628,5355075,,,,,,,Chicago Public Schools,,,,,,,,,,,www.cps.edu,Paula Cottone,Anita Muse,,,,,,
1089,CPS_Early_Childhood_Portal_scrape.csv, Carter,5740 S. Michigan Ave. ,,5350860,,Prekindergarten For All,3-4 hours,,,,,,,,,,,,,,,,,,,,,,,
2624,ECE Chicago Find a School scrape.csv, Lovett,6333 W. Bloomingdale ,60639,5343130,,,,,,Austin,,,,,,,,,,,,,PFA-REG,,,,,,,
3282,purple_binder_early_childhood.csv, V and J Day Care Center,1 E 113th Street ,60628,7853940,,,,,,,,,,,,,,,,,,,,,,,,,,Child Care
2522,ECE Chicago Find a School scrape.csv, Gary,3740 W. 31St St. ,60623,5341455,,,,,,South Lawndale,,,,,,,,,,,,,HS-HD,,,,,,,
1272,CPS_Early_Childhood_Portal_scrape.csv, Firman Community Services - Firman House West,37 W 47th St ,,3733400,,State Pre-Kindergarten,HALF DAY/FULL DAY,,,,,,,,,,,,,,,,,,,,,,,
2531,ECE Chicago Find a School scrape.csv, Gregory,3715 W. Polk Street ,60624,5346820,,,,,,East Garfield Park,,,,,,,,,,,,,PFA-REG,,,,,,,
1397,chapin_dfss_providers_2011_070212.csv,ADA S. MCKINLEY COMMUNITY SERVICES MCKINLEY-WRIGHT RENAISSANCE,7939 S WESTERN ,60620,4768805,,,,,,,ADA S. MCKINLEY COMMUNITY SERVICES,ASHBURN,,,,,Corllis Wright,Yes,Yes,Yes,"2708IT(Child Care IT Center), 2708PS(Child Care PS Center &",,,,,,,,,
2706,ECE Chicago Find a School scrape.csv, Ounce of Prev EC Center I/T,5044 S Wabash ,60615,9242334,,,,,,Grand Boulevard,,,,,,,,,,,,,CP,,,,,,,
2743,ECE Chicago Find a School scrape.csv, Revere,1010 E. 72nd St. ,60619,5350618,,,,,,Greater Grand Crossing,,,,,,,,,,,,,HS-HD,,,,,,,
568,CPS_Early_Childhood_Portal_scrape.csv, Lathrop,1440 S. Christiana ,,5341812,,Head Start,5-6 hours,,,,,,,,,,,,,,,,,,,,,,,
1386,chapin_dfss_providers_2011_070212.csv,ABRAHAM LINCOLN CENTRE LINCOLN ROSELAND,7 E 119TH ST ,60628,2647633,,,,,,,ABRAHAM LINCOLN CENTRE,WEST PULLMAN,,,,,Barbara Woods,Yes,No,No,3175PS(HS Collaboration with Childcare & PreK),,,,,,,,,
381,CPS_Early_Childhood_Portal_scrape.csv, Catholic Charities - St. Joseph,4800 S. Paulina ,,9272524,,Community Partnerships,"8-11 Hours, varies by facility",,,,,,,,,,,,,,,,,,,,,,,
11,CPS_Early_Childhood_Portal_scrape.csv, Catholic Charities of the Archdiocese of Chicago - St. Kevin,10509 S Torrence Ave ,,3746466,,Child Care,EXTENDED DAY,,,,,,,,,,,,,,,,,,,,,,,
49,CPS_Early_Childhood_Portal_scrape.csv, El Valor - Little Tykes II,1723 W 35th St ,,5791791,,Child Care,EXTENDED DAY,,,,,,,,,,,,,,,,,,,,,,,
931,CPS_Early_Childhood_Portal_scrape.csv, Whistler,11533 S. Ada ,,5355560,,Prekindergarten For All,3-4 hours,,,,,,,,,,,,,,,,,,,,,,,
447,CPS_Early_Childhood_Portal_scrape.csv, Chicago Youth Centers Rebecca K. Crown,7601 S. Phillips ,,7310444,,Community Partnerships,"8-11 Hours, varies by facility",,,,,,,,,,,,,,,,,,,,,,,
2195,DFSS_AgencySiteLies_2012.csv,Henry Booth House Kids Place II,1318 W 95TH St. ,60643,4456500,,,,,,,Henry Booth House,,,,,,,,,,,www.henryboothhouse.org,Scott Perkins,Ms. Porter ,,,,,,
328,CPS_Early_Childhood_Portal_scrape.csv, Locke Charter School,3141 W. Jackson ,,2657232,,Community Partnerships,"8-11 Hours, varies by facility",,,,,,,,,,,,,,,,,,,,,,,
3214,purple_binder_early_childhood.csv, Lutheran Social Services - Rogers Park,1754 W Devon Avenue ,60660,6354600,,,,,,,,,,,,,,,,,,,,,,,,,,Child Care
1891,chapin_dfss_providers_2011_070212.csv,WOODLAWN A.M.E. CHURCH WOODLAWN AME CHURCH,6456 S EVANS ,60637,6671402,,,,,,,WOODLAWN A.M.E. CHURCH,WOODLAWN,,,,,Samara Akins,No,No,No,"7148IT(Child Care IT Center), 2686SA(School Age (SA)), 7148P",,,,,,,,,
3314,purple_binder_early_childhood.csv, Centers for New Horizons - Altgeld,941 E 132nd Street ,60627,4683055,,,,,,,,,,,,,,,,,,,,,,,,,,Early Head Start
170,CPS_Early_Childhood_Portal_scrape.csv, Christopher House - Christopher House - Rogers Park,7059 N Greenview Ave ,,2745477,,Child Care,EXTENDED DAY,,,,,,,,,,,,,,,,,,,,,,,
1797,chapin_dfss_providers_2011_070212.csv,HULL HOUSE ASSOCIATION PARKWAY COMMUNITY CENTER,500 E 67TH STREET ,60637,4931306,,,,,,,HULL HOUSE ASSOCIATION,WOODLAWN,,,,,Carmen Knight,Yes,No,No,"3263PS(HS Collaboration with Childcare & PreK), 2637SA(Schoo",,,,,,,,,
2697,ECE Chicago Find a School scrape.csv, O'Toole,6550 S. Seeley ,60636,5359040,,,,,,West Englewood,,,,,,,,,,,,,HS-HD,,,,,,,
920,CPS_Early_Childhood_Portal_scrape.csv, Mt. Vernon,10540 S. Morgan ,,5352825,,Prekindergarten For All,3-4 hours,,,,,,,,,,,,,,,,,,,,,,,
1238,CPS_Early_Childhood_Portal_scrape.csv, Marcy Newberry Association - FOSCO ABLA Center,1312 S Racine Ave ,,7466024,,State Pre-Kindergarten,HALF DAY/FULL DAY,,,,,,,,,,,,,,,,,,,,,,,
320,CPS_Early_Childhood_Portal_scrape.csv, Irving Park Early Learning Center,3023 W. Montrose ,,5397422,,Community Partnerships,"8-11 Hours, varies by facility",,,,,,,,,,,,,,,,,,,,,,,
3048,purple_binder_early_childhood.csv, Bethel New Life School,1120 N Lamon Avenue ,60651,6267760,,,,,,,,,,,,,,,,,,,,,,,,,,Child Care
1441,chapin_dfss_providers_2011_070212.csv,CATHOLIC CHARITIES OF THE ARCHDIOCESE OF CHICAGO ST. JOSEPH,4800 S PAULINA ,60609,9272524,,,,,,,CATHOLIC CHARITIES OF THE ARCHDIOCESE OF CHICAGO,NEW CITY,,,,,Janice  Williams,Yes,No,Yes,"2631SA(School Age (SA)), 7041PS(HS Collaboration with Childc",,,,,,,,,
3311,purple_binder_early_childhood.csv, Carole Robertson Center For Learning,3701 W Ogden Avenue ,60623,5228400,,,,,,,,,,,,,,,,,,,,,,,,,,Early Head Start
2625,ECE Chicago Find a School scrape.csv, Lozano,1424 N. Cleaver ,60622,5344150,,,,,,West Town,,,,,,,,,,,,,PFA-REG,,,,,,,
1908,DFSS_AgencySiteLies_2012.csv,"Ada S. McKinley
Community Services Children's Center (Halsted)",12803 S Halsted ,60628,2645171,,,,,,,"Ada S. McKinley
Community Services",,,,,,,,,,,www.adasmckinley.org,"George Jones, Jr.",Rosalyn Patton,,,,,,
2701,ECE Chicago Find a School scrape.csv, Onward House,600 N. Leavitt ,60612,6666729,,,,,,West Town,,,,,,,,,,,,,CP,,,,,,,
3183,purple_binder_early_childhood.csv, Irving Park Early Learning Center,3023 W Montrose Avenue ,60618,5397422,,,,,,,,,,,,,,,,,,,,,,,,,,Child Care
651,CPS_Early_Childhood_Portal_scrape.csv, Christopher House - Christopher House - Logan Square,2610 N Francisco Ave ,,2354073,,Head Start,HALF DAY/FULL DAY,,,,,,,,,,,,,,,,,,,,,,,
355,CPS_Early_Childhood_Portal_scrape.csv, Frazier Preparatory Academy,4027 W. Grenshaw ,,5358653,,Community Partnerships,"8-11 Hours, varies by facility",,,,,,,,,,,,,,,,,,,,,,,
2128,DFSS_AgencySiteLies_2012.csv,Easter Seals Society of Metropolitan Chicago Fresh Start Day Care Center,6924 W. North Avenue ,60635,4792870,,,,,,,Easter Seals Society of Metropolitan Chicago,,,,,,,,,,,www.easterseaslchicago.org,Barbara Zawacki,Claudia Aguayo ,,,,,,
1409,chapin_dfss_providers_2011_070212.csv,BOARD TRUSTEES-CITY COLLEGES OF CHICAGO TRUMAN COLLEGE,1145 W WILSON AVE ,60640,8784740,,,,,,,BOARD TRUSTEES-CITY COLLEGES OF CHICAGO,UPTOWN,,,,,Judi Gibian-Mennenga,Yes,No,No,"7099PS(HS Collaboration with Childcare & PreK), 4386PS(Child",,,,,,,,,
1039,CPS_Early_Childhood_Portal_scrape.csv, Nobel,4127 W. Hirsch ,,5344365,,Prekindergarten For All,3-4 hours,,,,,,,,,,,,,,,,,,,,,,,
264,CPS_Early_Childhood_Portal_scrape.csv, Children?s Place Family Center,1800 N. Humboldt Blvd. ,,,,Community Partnerships,"8-11 Hours, varies by facility",,,,,,,,,,,,,,,,,,,,,,,
1239,CPS_Early_Childhood_Portal_scrape.csv, Abraham Lincoln Centre - Hope Presbyterian Church,1354 W 61st St ,,4715100,,State Pre-Kindergarten,HALF DAY/FULL DAY,,,,,,,,,,,,,,,,,,,,,,,
2058,DFSS_AgencySiteLies_2012.csv,"Chicago Public Schools Piccolo Specialty School, Brian",1040 N. Keeler Avenue ,60651,5344425,,,,,,,Chicago Public Schools,,,,,,,,,,,www.cps.edu,Paula Cottone,Ms. Tiffany S. Allison,,,,,,
2306,ECE Chicago Find a School scrape.csv, Audubon,3500 N. Hoyne ,60618,5345470,,,,,,North Center,,,,,,,,,,,,,PFA-REG TS,,,,,,,
1676,chapin_dfss_providers_2011_070212.csv,EL VALOR TEDDY BEAR 3 (6401 S PULASKI RD),6401 S PULASKI ,60629,2842292,,,,,,,EL VALOR,WEST LAWN,,,,,Natasha Catchings,Yes,No,No,,,,,,,,,,
3112,purple_binder_early_childhood.csv, ChildServ - St Matthew Head Start,1000 N Orleans Street ,60610,9443403,,,,,,,,,,,,,,,,,,,,,,,,,,Child Care
2587,ECE Chicago Find a School scrape.csv, Johnson,1420 S. Albany ,60623,5341829,,,,,,North Lawndale,,,,,,,,,,,,,HS-HD,,,,,,,
661,CPS_Early_Childhood_Portal_scrape.csv, Williams,2710 S.Dearborn ,,5349245,,Head Start,5-6 hours,,,,,,,,,,,,,,,,,,,,,,,
873,CPS_Early_Childhood_Portal_scrape.csv, Ryder,8716 S. Wallace ,,5353843,,Head Start,3-4 hours,,,,,,,,,,,,,,,,,,,,,,,
1737,chapin_dfss_providers_2011_070212.csv,HENRY BOOTH HOUSE COLOR FOR TOTS,2550 E 73RD ST ,60649,3638687,,,,,,,HENRY BOOTH HOUSE,SOUTH SHORE,,,,,Cassandra Williams,Yes,No,No,,,,,,,,,,
1501,chapin_dfss_providers_2011_070212.csv,"CHICAGO PUBLIC SCHOOLS EBERHART, JOHN F.",3400 W 65TH PL ,60629,5359190,,,,,,,CHICAGO PUBLIC SCHOOLS,CHICAGO LAWN,,,,,Nneka Gunn,Yes,No,No,,,,,,,,,,
329,CPS_Early_Childhood_Portal_scrape.csv, Bethel New Life Bethel Child Development,316 N. Pulaski ,,2653830,,Community Partnerships,"8-11 Hours, varies by facility",,,,,,,,,,,,,,,,,,,,,,,
2606,ECE Chicago Find a School scrape.csv, Kohn,10414 S. State  ,60628,5355489,,,,,,Roseland,,,,,,,,,,,,,HS-HD,,,,,,,
1175,CPS_Early_Childhood_Portal_scrape.csv, Chicago Commons Association - Guadalupano Family Center,1814 S Paulina St ,,6663883,,School Age,PART DAY/FULL DAY,,,,,,,,,,,,,,,,,,,,,,,
249,CPS_Early_Childhood_Portal_scrape.csv, Catholic Charities - Our Lady of Lourdes,1449 S. Keeler ,,5213126,,Community Partnerships,"8-11 Hours, varies by facility",,,,,,,,,,,,,,,,,,,,,,,
1042,CPS_Early_Childhood_Portal_scrape.csv, Bateman,4220 N. Richmond ,,5345055,,Prekindergarten For All,3-4 hours,,,,,,,,,,,,,,,,,,,,,,,
2667,ECE Chicago Find a School scrape.csv, Morton,431 N. Troy ,60612,5346791,,,,,,Humboldt Park,,,,,,,,,,,,,HS-HD,,,,,,,
2346,ECE Chicago Find a School scrape.csv, Brunson,932 N. Central Av ,60651,5346025,,,,,,Austin,,,,,,,,,,,,,HS-HD,,,,,,,
278,CPS_Early_Childhood_Portal_scrape.csv, Carole Robertson Center Roosevelt,2020 W. Roosevelt ,,2434881,,Community Partnerships,"8-11 Hours, varies by facility",,,,,,,,,,,,,,,,,,,,,,,
1243,CPS_Early_Childhood_Portal_scrape.csv, Marcy Newberry Association - Marcy Center,1539 S Springfield Ave ,,7612300,,State Pre-Kindergarten,HALF DAY/FULL DAY,,,,,,,,,,,,,,,,,,,,,,,
2521,ECE Chicago Find a School scrape.csv, Gallistel,10347 S. Ewing Ave. ,60617,5356540,,,,,,East Side,,,,,,,,,,,,,PFA-REG TS,,,,,,,
2422,ECE Chicago Find a School scrape.csv, Christopher House Palmer Sq,2140 N. Richmond ,60647,7728693,,,,,,Logan Square,,,,,,,,,,,,,CP,,,,,,,
1599,chapin_dfss_providers_2011_070212.csv,CHICAGO STATE UNIVERSITY RAISE UP A CHILD,124 E 113 ST ,60628,7851172,,,,,,,CHICAGO STATE UNIVERSITY,ROSELAND,,,,,,Yes,Yes,Yes,"4138PS(Child Care PS Center), 4134PS(HS Collaboration with C",,,,,,,,,
1168,CPS_Early_Childhood_Portal_scrape.csv, Erie Neighborhood House - Erie House,1347 W Erie St ,,6663460,,School Age,PART DAY/FULL DAY,,,,,,,,,,,,,,,,,,,,,,,
1575,chapin_dfss_providers_2011_070212.csv,"CHICAGO PUBLIC SCHOOLS SEWARD, WILLIAM H.",4600 S HERMITAGE AVE ,60609,5354890,,,,,,,CHICAGO PUBLIC SCHOOLS,NEW CITY,,,,,Marcey Reyes,Yes,No,No,,,,,,,,,,
2268,DFSS_AgencySiteLies_2012.csv,South Central Community Services South Central Community Service,8316 S. Ellis Ave. ,60618,4830900,,,,,,,South Central Community Services,,,,,,,,,,,www.sccsinc.org,Felicia Blasingame,Marsha Hightower,,,,,,
202,CPS_Early_Childhood_Portal_scrape.csv, Ferguson CPC,1420 N. Hudson ,,5348580,,Child Parent Center,3-4 hours,,,,,,,,,,,,,,,,,,,,,,,
1880,chapin_dfss_providers_2011_070212.csv,SOUTH CENTRAL COMMUNITY SERVICES SOUTH CENTRAL COMMUNITY SERVICE,8316 S ELLIS AVE ,60619,4830900,,,,,,,SOUTH CENTRAL COMMUNITY SERVICES,CHATHAM,,,,,Marsha Hightower,Yes,No,No,,,,,,,,,,
174,CPS_Early_Childhood_Portal_scrape.csv, South Shore United Methodist - South Shore United,7350 S Jeffery Blvd ,,3244430,,Child Care,EXTENDED DAY,,,,,,,,,,,,,,,,,,,,,,,
1138,CPS_Early_Childhood_Portal_scrape.csv, Greeley,832 W. Sheridan ,,5345800,,Prekindergarten For All,3-4 hours,,,,,,,,,,,,,,,,,,,,,,,
703,CPS_Early_Childhood_Portal_scrape.csv, Henry Booth House - Pathway,3418 W 79th St ,,7765439,,Head Start,HALF DAY/FULL DAY,,,,,,,,,,,,,,,,,,,,,,,
1912,DFSS_AgencySiteLies_2012.csv,"Ada S. McKinley
Community Services McKinley-Maggie Drummond",4301 S. Wabash ,60653,3738200,,,,,,,"Ada S. McKinley
Community Services",,,,,,,,,,,www.adasmckinley.org,"George Jones, Jr.",Lyris Clark,,,,,,
1864,chapin_dfss_providers_2011_070212.csv,SALVATION ARMY BUILDING BLOCKS,1120 W 69TH ST ,60621,4882222,,,,,,,SALVATION ARMY,ENGLEWOOD,,,,,Mitchelle Redd,Yes,No,No,,,,,,,,,,
2517,ECE Chicago Find a School scrape.csv, Gads Hill Child Care,2653 W. Ogden ,60608,5211196,,,,,,North Lawndale,,,,,,,,,,,,,CP,,,,,,,
2024,DFSS_AgencySiteLies_2012.csv,"Chicago Public Schools Jungman, Joseph",1746 S. Miller ,60608,5347375,,,,,,,Chicago Public Schools,,,,,,,,,,,www.cps.edu,Paula Cottone,Mrs. Zaida Hernandez,,,,,,
997,CPS_Early_Childhood_Portal_scrape.csv, McKinley Park,2744 W. Pershing Rd ,,5533661,,Prekindergarten For All,3-4 hours,,,,,,,,,,,,,,,,,,,,,,,
562,CPS_Early_Childhood_Portal_scrape.csv, Henry Booth House - Taylor Day School,1414 W 87th St ,,2392322,,Head Start,HALF DAY/FULL DAY,,,,,,,,,,,,,,,,,,,,,,,
1413,chapin_dfss_providers_2011_070212.csv,CAROLE ROBERTSON CENTER FOR LEARNING FCCH-ANGELITA YUGSI,6447 S KNOX AVE ,60629,5211600,,,,,,,CAROLE ROBERTSON CENTER FOR LEARNING,CLEARING,,,,,Jolene Martin,Yes,No,No,"5931PS(HS Collaboration with Childcare Homes), 5931IP(EHS Co",,,,,,,,,
2548,ECE Chicago Find a School scrape.csv, Harvard,7525 S. Harvard ,60620,5353045,,,,,,Greater Grand Crossing,,,,,,,,,,,,,PFA-REG,,,,,,,
199,CPS_Early_Childhood_Portal_scrape.csv, Von Humboldt CPC,1345 N. Rockwell ,,5344668,,Child Parent Center,3-4 hours,,,,,,,,,,,,,,,,,,,,,,,
1971,DFSS_AgencySiteLies_2012.csv,"Chicago Public Schools Brown, Ronald",12607 S Union ,60628,5355385,,,,,,,Chicago Public Schools,,,,,,,,,,,www.cps.edu,Paula Cottone,Ms. Gale Baker,,,,,,
867,CPS_Early_Childhood_Portal_scrape.csv, Christopher House - Christopher House - Lakeshore,850 W Eastwood Ave ,,2719403,,Head Start,HALF DAY/FULL DAY,,,,,,,,,,,,,,,,,,,,,,,
74,CPS_Early_Childhood_Portal_scrape.csv, YMCA of Metropolitan Chicago - High Ridge YMCA,2424 W Touhy Ave ,,2628300,,Child Care,EXTENDED DAY,,,,,,,,,,,,,,,,,,,,,,,
2725,ECE Chicago Find a School scrape.csv, Pilsen,1420 W. 17Th St. ,60608,5347675,,,,,,Lower West Side,,,,,,,,,,,,,HS-HD,,,,,,,
2970,NAEYC_accreditation.csv, Ravenswood Community Child Care Center,4908 North Damen Avenue  ,60625,2714495,,,,,,,,,,,,,,,,,,http://rc4cares.com,,,,09/30/12,600291,directorrc4cares@gmail.com,,
930,CPS_Early_Childhood_Portal_scrape.csv, LaSalle/Andersen,1148 N. Honore ,,5344276,,Prekindergarten For All,3-4 hours,,,,,,,,,,,,,,,,,,,,,,,
901,CPS_Early_Childhood_Portal_scrape.csv, South Loop,1212 S. Plymouth ,,5348690,,Head Start/Prekindergarten For,"8-11 Hours, varies by facility",,,,,,,,,,,,,,,,,,,,,,,
2742,ECE Chicago Find a School scrape.csv, Reinberg,3425 N. Major ,60634,5343465,,,,,,Portage Park,,,,,,,,,,,,,PFA-REG,,,,,,,
1503,chapin_dfss_providers_2011_070212.csv,"CHICAGO PUBLIC SCHOOLS ELLINGTON, EDWARD ""DUKE"" K.",243 NORTH PARKSIDE ,60644,5346361,,,,,,,CHICAGO PUBLIC SCHOOLS,AUSTIN,,,,,Ms. Shirley M.  Scott,Yes,No,No,,,,,,,,,,
521,CPS_Early_Childhood_Portal_scrape.csv, Piccolo,1040 N. Keeler ,,5344425,,Head Start,5-6 hours,,,,,,,,,,,,,,,,,,,,,,,
204,CPS_Early_Childhood_Portal_scrape.csv, Delano CPC,3905 W. Wilcox ,,5346450,,Child Parent Center,3-4 hours,,,,,,,,,,,,,,,,,,,,,,,
1877,chapin_dfss_providers_2011_070212.csv,SALVATION ARMY SOUTH SHORE BIBLE/MARANATHA HEAD START,1631 E 71ST ST ,60649,4937500,,,,,,,SALVATION ARMY,SOUTH SHORE,,,,,Jaqueline Carter,Yes,No,No,4380PS(HS Collaboration with Childcare),,,,,,,,,
2278,DFSS_AgencySiteLies_2012.csv,Westside Holistic Family Services WESTSIDE HOLISTIC FAMILY SERVICES,4909 W. Division ,60651,9218777,,,,,,,Westside Holistic Family Services,,,,,,,,,,,,Jo Anne Anderson,Florence Merritt,,,,,,
1376,chapin_ounce_providers_2011_071112.csv, Adolescent Parenting Program (APP) ,"1335 N. California Ave
",60622,6452300,,,,,,,,Home Based,"--
",24,,,,,,,,,,,,,,,,
84,CPS_Early_Childhood_Portal_scrape.csv, Easter Seals Society of Metropolitan Chicago - The Keeper's Inst.,2718 W 59th St ,,,,Child Care,EXTENDED DAY,,,,,,,,,,,,,,,,,,,,,,,
1222,CPS_Early_Childhood_Portal_scrape.csv, Woodlawn A.M.E. Church - Woodlawn A.M.E.,6456 S Evans Ave ,,6671402,,School Age,PART DAY/FULL DAY,,,,,,,,,,,,,,,,,,,,,,,
2712,ECE Chicago Find a School scrape.csv, Parker CPC,328 W. 69Th  ,60621,5353853,,,,,,Englewood,,,,,,,,,,,,,CPC-FD,,,,,,,
224,CPS_Early_Childhood_Portal_scrape.csv, Children?s Developmental Institute MP,10928 S. Halsted St. ,,9950600,,Community Partnerships,"8-11 Hours, varies by facility",,,,,,,,,,,,,,,,,,,,,,,
2524,ECE Chicago Find a School scrape.csv, Goethe,2236 N. Rockwell ,60647,5344135,,,,,,Logan Square,,,,,,,,,,,,,PFA-REG,,,,,,,
1539,chapin_dfss_providers_2011_070212.csv,"CHICAGO PUBLIC SCHOOLS MADISON, JAMES",7433 S DORCHESTER ,60619,5350551,,,,,,,CHICAGO PUBLIC SCHOOLS,SOUTH SHORE,,,,,Dr. Beverly J.  Greene,Yes,No,No,,,,,,,,,,
2936,NAEYC_accreditation.csv, Lincoln Park Cooperative Nursery School,1753 North Fern Court  ,60614,9445469,,,,,,,,,,,,,,,,,,http://www.lincolnparkcoop.org,,,,07/31/14,299156,admin@lincolnparkcoop.org,,
1012,CPS_Early_Childhood_Portal_scrape.csv, Cleveland,3121 W. Byron ,,5345130,,Prekindergarten For All,3-4 hours,,,,,,,,,,,,,,,,,,,,,,,
2050,DFSS_AgencySiteLies_2012.csv,Chicago Public Schools Nicholson Math and Science,6006 S Peoria St ,60621,5353285,,,,,,,Chicago Public Schools,,,,,,,,,,,www.cps.edu,Paula Cottone,Mr. Rodney L. Hull,,,,,,
3098,purple_binder_early_childhood.csv, Chicago Urban Day School,1248 W 69th Street ,60636,4833555,,,,,,,,,,,,,,,,,,,,,,,,,,Child Care
2661,ECE Chicago Find a School scrape.csv, Mitchell,2233 W. Ohio ,60612,5347655,,,,,,West Town,,,,,,,,,,,,,PFA-REG,,,,,,,
3318,purple_binder_early_childhood.csv, Firman Community Services - Early Beginnings,4705 S State Street ,60609,,,,,,,,,,,,,,,,,,,,,,,,,,,Early Head Start
1356,IDHS_child_care_provider_list.csv," Ounce of Prevention Fund, Inc.","33 West Monroe Street, Suite 2400",60603,9223863,"(312)
922-3337",,,3985-7887-5433-003,,,,,,,,,,,,,,,,,,,,,,
2685,ECE Chicago Find a School scrape.csv, Nightingale,5250 S. Rockwell ,60632,5359270,,,,,,Gage Park,,,,,,,,,,,,,PFA-REG,,,,,,,
425,CPS_Early_Childhood_Portal_scrape.csv, Little Angels Family Daycare,6701 S. Emerald ,,3703688,,Community Partnerships,"8-11 Hours, varies by facility",,,,,,,,,,,,,,,,,,,,,,,
1448,chapin_dfss_providers_2011_070212.csv,CHICAGO COMMONS ASSOCIATION CHICAGO URBAN DAYCARE,1248 W 69TH ST ,60636,4833555,,,,,,,CHICAGO COMMONS ASSOCIATION,WEST ENGLEWOOD,,,,,,Yes,No,No,,,,,,,,,,
1872,chapin_dfss_providers_2011_070212.csv,SALVATION ARMY FCCH-MILDRED SPEARS,6749 S WINCHESTER ,60636,9301832,,,,,,,SALVATION ARMY,WEST ENGLEWOOD,,,,,Kelli Kemp,No,No,No,"6107IP(EHS Collaboration Enhanced Home IP), 6107IT(EHS Enhan",,,,,,,,,
1233,CPS_Early_Childhood_Portal_scrape.csv, Bethel New Life - Molade Child Development Center,1120 N Lamon Ave ,,6267760,,State Pre-Kindergarten,HALF DAY/FULL DAY,,,,,,,,,,,,,,,,,,,,,,,
2409,ECE Chicago Find a School scrape.csv, Children's Place Family Center,1800 N. Humboldt ,60622,3959193,,,,,,Logan Square,,,,,,,,,,,,,CP,,,,,,,
3202,purple_binder_early_childhood.csv, Lake Shore School,5611 N Clark Street ,60660,5616707,,,,,,,,,,,,,,,,,,,,,,,,,,Child Care
106,CPS_Early_Childhood_Portal_scrape.csv, Chicago State University - Professional Playhouse,338 E 103rd ,,5680728,,Child Care,EXTENDED DAY,,,,,,,,,,,,,,,,,,,,,,,
780,CPS_Early_Childhood_Portal_scrape.csv, Trinity United Church of Christ - Trinity United,532 W 95th St ,,4883511,,Head Start,HALF DAY/FULL DAY,,,,,,,,,,,,,,,,,,,,,,,
2718,ECE Chicago Find a School scrape.csv, Peirce,1423 W. Bryn Mawr ,60660,5342440,,,,,,Edgewater,,,,,,,,,,,,,PFA-REG,,,,,,,
1001,CPS_Early_Childhood_Portal_scrape.csv, Locke,2828 N. Oak Park Ave ,,5343300,,Prekindergarten For All,3-4 hours,,,,,,,,,,,,,,,,,,,,,,,
2889,NAEYC_accreditation.csv, Chicago Commons Taylor Center for New Experiences,1633 North Hamlin Avenue  ,60647,2278551,,,,,,,,,,,,,,,,,,http://chicagocommons.org,,,,08/31/14,283654,powellv@chicagocommons.org,,
2119,DFSS_AgencySiteLies_2012.csv,Community Learning Center Community Learning Center,10612 S. Wentworth ,60628,9284104,,,,,,,Community Learning Center,,,,,,,,,,,,Wanda Avery,Wanda Avery,,,,,,
1203,CPS_Early_Childhood_Portal_scrape.csv, Korean American Community Services - Korean American Community Services,4300 N California Ave ,,5838281,,School Age,PART DAY/FULL DAY,,,,,,,,,,,,,,,,,,,,,,,
3332,purple_binder_early_childhood.csv, YMCA Garfield,7 N Homan Avenue ,60624,2653900,,,,,,,,,,,,,,,,,,,,,,,,,,Early Head Start
516,CPS_Early_Childhood_Portal_scrape.csv, Easter Seals Society of Metropolitan Chicago - Gilchrist-Marchman,1001 W Roosevelt Rd ,,9395115,,Head Start,HALF DAY/FULL DAY,,,,,,,,,,,,,,,,,,,,,,,
2504,ECE Chicago Find a School scrape.csv, Farragut,2345 S. Christiana ,60623,5341300,,,,,,South Lawndale,,,,,,,,,,,,,PFA-REG,,,,,,,
865,CPS_Early_Childhood_Portal_scrape.csv, Salvation Army - Family Outreach Initiative (Sal Army),845 W 69th St ,,8324700,,Head Start,HALF DAY/FULL DAY,,,,,,,,,,,,,,,,,,,,,,,
1782,chapin_dfss_providers_2011_070212.csv,HULL HOUSE ASSOCIATION FCCH-MONICA PIERCE,1644 S AVERS ST ,60623,2355342,,,,,,,HULL HOUSE ASSOCIATION,NORTH LAWNDALE,,,,,Etisha Wofford,No,Yes,No,"5743IP(EHS Collaboration Enhanced Home IP), 5942IT(Child Car",,,,,,,,,
1085,CPS_Early_Childhood_Portal_scrape.csv, Hitch,5625 N. Mcvicker ,,5341189,,Prekindergarten For All,3-4 hours,,,,,,,,,,,,,,,,,,,,,,,
1151,CPS_Early_Childhood_Portal_scrape.csv," Jackson, M.",917 W. 88Th St. ,,5353341,,Prekindergarten For All,3-4 hours,,,,,,,,,,,,,,,,,,,,,,,
2932,NAEYC_accreditation.csv, Kennedy-King College Child Development Lab Center,710 W. 65th Street Building Z ,60621,6025481,,,,,,,,,,,,,,,,,,http//kennedyking.ccc.edu,,,,09/30/12,27012,gpasillas@ccc.edu,,
953,CPS_Early_Childhood_Portal_scrape.csv, Harte,1556 E. 56Th St. ,,5350870,,Prekindergarten For All,3-4 hours,,,,,,,,,,,,,,,,,,,,,,,
2702,ECE Chicago Find a School scrape.csv, Oriole Park,5424 N. Oketo ,60656,5341201,,,,,,Norwood Park,,,,,,,,,,,,,PFA-REG,,,,,,,
2991,NAEYC_accreditation.csv, Uptown Family Care Center,4520 North Beacon Street  ,60640,5613500,,,,,,,,,,,,,,,,,,http://www.hullhouse.org,,,,10/01/16,399517,pshowers@hullhouse.org,,
2791,ECE Chicago Find a School scrape.csv, St. Paul-Chaney Ford Child Care,4526 S. Wabash  ,60653,2858721,,,,,,Grand Boulevard,,,,,,,,,,,,,CP,,,,,,,
2873,NAEYC_accreditation.csv, Alphonsus Academy & Center for the Arts,1439 West Wellington  ,60657,3484629,,,,,,,,,,,,,,,,,,http://www.alphonsusacademy.org,,,,01/31/13,338338,mstanton@alphonsusacademy.org,,
2811,ECE Chicago Find a School scrape.csv," Thorp, J.N.",8914 S. Buffalo ,60617,5356250,,,,,,South Chicago,,,,,,,,,,,,,HS-HD,,,,,,,
3240,purple_binder_early_childhood.csv, Onward Neighborhood House - After School,2158 W Ohio Street ,60612,2437920,,,,,,,,,,,,,,,,,,,,,,,,,,Child Care
445,CPS_Early_Childhood_Portal_scrape.csv, Howard Area Early Childhood Center,7510 N. Ashland ,,7647610,,Community Partnerships,"8-11 Hours, varies by facility",,,,,,,,,,,,,,,,,,,,,,,
16,CPS_Early_Childhood_Portal_scrape.csv, Thresholds - Thresholds Mothers' Project,1110 W Belmont Ave ,,4723558,,Child Care,EXTENDED DAY,,,,,,,,,,,,,,,,,,,,,,,
2065,DFSS_AgencySiteLies_2012.csv,"Chicago Public Schools Ryder, William H.",8716 S. Wallace Street ,60620,5353843,,,,,,,Chicago Public Schools,,,,,,,,,,,www.cps.edu,Paula Cottone,Mrs. Janice  Preston,,,,,,
2109,DFSS_AgencySiteLies_2012.csv,Chicago Youth Centers Rachel's 2,5242 W. North Ave ,60639,2371444,,,,,,,Chicago Youth Centers,,,,,,,,,,,www.chicagoyouthcenters.org,Harry Wells,Carol Quinn ,,,,,,
2329,ECE Chicago Find a School scrape.csv, Bethel New Life,1120 N. Lamon ,60651,6267760,,,,,,Austin,,,,,,,,,,,,,CP,,,,,,,
3206,purple_binder_early_childhood.csv, Little Angels Day Care Center,6407 N Maplewood ,60645,3389770,,,,,,,,,,,,,,,,,,,,,,,,,,Child Care
0,CPS_Early_Childhood_Portal_scrape.csv, Salvation Army - Temple / Salvation Army,1 N Ogden Ave ,,2262649,,Child Care,EXTENDED DAY,,,,,,,,,,,,,,,,,,,,,,,
624,CPS_Early_Childhood_Portal_scrape.csv, Chinese American Service League - Chinese American Service League,2141 S Tan Ct ,,7910418,,Head Start,HALF DAY/FULL DAY,,,,,,,,,,,,,,,,,,,,,,,
1796,chapin_dfss_providers_2011_070212.csv,HULL HOUSE ASSOCIATION ORR INFANT TODDLER PROGRAM,730 N PULASKI RD ,60624,8261090,,,,,,,HULL HOUSE ASSOCIATION,HUMBOLDT PARK,,,,,,No,Yes,No,,,,,,,,,,
1378,chapin_ounce_providers_2011_071112.csv, Community Service Center,"1343 N. California Ave
",60622,6452300,,,,,,,,Full Day/Full Year,"--
",54,,,,,,,,,,,,,,,,
2345,ECE Chicago Find a School scrape.csv, Brownell,6741 S. Michigan ,60637,5353030,,,,,,Greater Grand Crossing,,,,,,,,,,,,,PFA-REG,,,,,,,
3101,purple_binder_early_childhood.csv, Chicago Youth Centers - BBR Youth Center,1530 S Hamlin Avenue ,60623,7621140,,,,,,,,,,,,,,,,,,,,,,,,,,Child Care
1205,CPS_Early_Childhood_Portal_scrape.csv, Hull House Association - LeClaire Hearst / Hull House Association,4340 S Lamon Ave ,,7671516,,School Age,PART DAY/FULL DAY,,,,,,,,,,,,,,,,,,,,,,,
1161,CPS_Early_Childhood_Portal_scrape.csv, Easter Seals Society of Metropolitan Chicago - Gilchrist-Marchman,1001 W Roosevelt Rd ,,9395115,,School Age,PART DAY/FULL DAY,,,,,,,,,,,,,,,,,,,,,,,
1669,chapin_dfss_providers_2011_070212.csv,EL VALOR LITTLE TYKES II,1723 W 35TH STREET ,60609,5791791,,,,,,,EL VALOR,MCKINLEY PARK,,,,,Laura Gonzalez,Yes,No,No,,,,,,,,,,
3245,purple_binder_early_childhood.csv, Resurrection Child Care Center,7435 W Talcott Avenue ,60631,7925253,,,,,,,,,,,,,,,,,,,,,,,,,,Child Care
1606,chapin_dfss_providers_2011_070212.csv,CHICAGO YOUTH CENTERS CUDDLE CARE ACADEMY,4800 S LAKE PARK AVE ,60615,2851114,,,,,,,CHICAGO YOUTH CENTERS,KENWOOD,,,,,,Yes,No,No,,,,,,,,,,
487,CPS_Early_Childhood_Portal_scrape.csv, El Hogar del Nino/Cuidar - El Hogar del Nino/Cuidar- California,2325 S California Ave ,,5231629,,Early Head Start,EXTENDED DAY,,,,,,,,,,,,,,,,,,,,,,,
1226,CPS_Early_Childhood_Portal_scrape.csv, Salvation Army - Temple / Salvation Army,1 N Ogden Ave ,,2262649,,State Pre-Kindergarten,HALF DAY/FULL DAY,,,,,,,,,,,,,,,,,,,,,,,
3279,purple_binder_early_childhood.csv, Trinity Resources Hope for Youth,5900 W Iowa Street ,60651,6260323,,,,,,,,,,,,,,,,,,,,,,,,,,Child Care
1667,chapin_dfss_providers_2011_070212.csv,EL VALOR LITTLE LEARNERS,5923 W 63RD STREET ,60638,5815541,,,,,,,EL VALOR,CLEARING,,,,,Marilyn Gonzalez,Yes,No,No,,,,,,,,,,
2108,DFSS_AgencySiteLies_2012.csv,Chicago Youth Centers Rachel's 1,3430 W. Roosevelt Rd ,60624,5330444,,,,,,,Chicago Youth Centers,,,,,,,,,,,www.chicagoyouthcenters.org,Harry Wells,Carol Quinn ,,,,,,
2926,NAEYC_accreditation.csv, Immaculate Conception,1431 N. North Park Avenue  ,60610,9440304,,,,,,,,,,,,,,,,,,,,,,05/31/15,601502,ksullivan@icsnorthpark.com,,
2020,DFSS_AgencySiteLies_2012.csv,"Chicago Public Schools Hurley, Edward N.",3849 W. 69th Place ,60629,5352068,,,,,,,Chicago Public Schools,,,,,,,,,,,www.cps.edu,Paula Cottone,Mrs. Dolores  Cupp,,,,,,
1139,CPS_Early_Childhood_Portal_scrape.csv, New Sullivan,8331 S. Mackinaw ,,5356585,,Prekindergarten For All,3-4 hours,,,,,,,,,,,,,,,,,,,,,,,
2181,DFSS_AgencySiteLies_2012.csv,Henry Booth House Allison's,34 E. 115th St. ,60628,8404502,,,,,,,Henry Booth House,,,,,,,,,,,www.henryboothhouse.org,Scott Perkins,Allison Perkins ,,,,,,
1510,chapin_dfss_providers_2011_070212.csv,"CHICAGO PUBLIC SCHOOLS GALE COMM. ACAD., STEPHEN F.",1631 W JONQUIL TERRACE ,60626,5342100,,,,,,,CHICAGO PUBLIC SCHOOLS,ROGERS PARK,,,,,Mr. Richard P.  Glass Jr.,Yes,No,No,,,,,,,,,,
2450,ECE Chicago Find a School scrape.csv, Daley,5024 S. Wolcott ,60609,5359091,,,,,,New City,,,,,,,,,,,,,HS-HD,,,,,,,
2877,NAEYC_accreditation.csv, Bright Horizons at River East,325 East Grand Avenue  ,60611,9265437,,,,,,,,,,,,,,,,,,http://centers.brighthorizons.com/northwestern,,,,08/31/13,339670,kshackel@nmh.org,,
507,CPS_Early_Childhood_Portal_scrape.csv, YMCA of Metropolitan Chicago - Garfield Head Start/Child Developmental Center- YMCA,7 N Homan Ave ,,2653900,,Early Head Start,EXTENDED DAY,,,,,,,,,,,,,,,,,,,,,,,
1447,chapin_dfss_providers_2011_070212.csv,CHICAGO COMMONS ASSOCIATION BETTY'S DAYCARE ACADEMY,5725 W CHICAGO AVE ,60651,2611433,,,,,,,CHICAGO COMMONS ASSOCIATION,AUSTIN,,,,,,Yes,No,No,,,,,,,,,,
1055,CPS_Early_Childhood_Portal_scrape.csv, Woodson South,4444 S. Evans Ave ,,5351280,,Prekindergarten For All,3-4 hours,,,,,,,,,,,,,,,,,,,,,,,
3305,purple_binder_early_childhood.csv, Hansberry,4055 W Arthington Street ,60624,5346931,,,,,,,,,,,,,,,,,,,,,,,,,,Child Parent Center
1276,CPS_Early_Childhood_Portal_scrape.csv, Korean American Community Services - Korean American Community Services,4300 N California Ave ,,5838281,,State Pre-Kindergarten,HALF DAY/FULL DAY,,,,,,,,,,,,,,,,,,,,,,,
2000,DFSS_AgencySiteLies_2012.csv,"Chicago Public Schools Fiske, John",6145 South Ingleside ,60637,5350990,,,,,,,Chicago Public Schools,,,,,,,,,,,www.cps.edu,Paula Cottone,Ms. Cynthia Miller,,,,,,
2220,DFSS_AgencySiteLies_2012.csv,Home of Life Community Dev. Corp. HLCDC Dev. II,4650 W. Madison ,60644,6268655,,,,,,,Home of Life Community Dev. Corp.,,,,,,,,,,,www.homeoflife.org,Delores Sheppard,Diane Congress,,,,,,
2663,ECE Chicago Find a School scrape.csv, Monroe,3651 W. Shubert ,60647,5344155,,,,,,Logan Square,,,,,,,,,,,,,PFA-REG,,,,,,,
2016,DFSS_AgencySiteLies_2012.csv,"Chicago Public Schools Higgins C.A., Thomas J.",11710 S. Morgan ,60643,5355625,,,,,,,Chicago Public Schools,,,,,,,,,,,www.cps.edu,Paula Cottone,Dr. Mabel Alfred,,,,,,
2281,DFSS_AgencySiteLies_2012.csv,YMCA of Metropolitan Chicago Garfield,7 N. Homan ,60624,2653900,,,,,,,YMCA of Metropolitan Chicago,,,,,,,,,,,www.ymcachicago.org,Dorothy Cole-Gary,Paulette Hernandez ,,,,,,
548,CPS_Early_Childhood_Portal_scrape.csv, Marcy Newberry Association - FOSCO ABLA Center,1312 S Racine Ave ,,7466024,,Head Start,HALF DAY/FULL DAY,,,,,,,,,,,,,,,,,,,,,,,
70,CPS_Early_Childhood_Portal_scrape.csv, Chicago State University - Kenyatta's Day Care,2334 E 75th ,,2213777,,Child Care,EXTENDED DAY,,,,,,,,,,,,,,,,,,,,,,,
2497,ECE Chicago Find a School scrape.csv, Esmond (Blended),1865 W. Montvale ,60643,5352650,,,,,,Morgan Park,,,,,,,,,,,,,HS-HD,,,,,,,
1536,chapin_dfss_providers_2011_070212.csv,"CHICAGO PUBLIC SCHOOLS LINNE, CARL VON",3221 N SACRAMENTO ,60618,5345262,,,,,,,CHICAGO PUBLIC SCHOOLS,AVONDALE,,,,,Mr. Daniel W.  Rohan,Yes,No,No,,,,,,,,,,
2770,ECE Chicago Find a School scrape.csv, Shoop,1460 W. 112Th St. ,60643,5352715,,,,,,Morgan Park,,,,,,,,,,,,,PFA-REG,,,,,,,
2056,DFSS_AgencySiteLies_2012.csv,"Chicago Public Schools Penn, William",1616 S. Avers ,60623,5341665,,,,,,,Chicago Public Schools,,,,,,,,,,,www.cps.edu,Paula Cottone,Mrs. Sherryl Moore-Ollie,,,,,,
19,CPS_Early_Childhood_Portal_scrape.csv, Ada S. McKinley Community Services - McKinley - Roseland,11410 S Edbrooke Ave ,,4681918,,Child Care,EXTENDED DAY,,,,,,,,,,,,,,,,,,,,,,,
1681,chapin_dfss_providers_2011_070212.csv,ERIE NEIGHBORHOOD HOUSE ERIE HOUSE,1347 W ERIE ,60622,,,,,,,,ERIE NEIGHBORHOOD HOUSE,WEST TOWN,,,,,Mr. Dennis Puhr,No,No,No,2648SA(School Age (SA)),,,,,,,,,
272,CPS_Early_Childhood_Portal_scrape.csv, UIC Children?s Center II - West,1919 W. Taylor (m/c 525) Rm. 128 ,,4135326,,Community Partnerships,"8-11 Hours, varies by facility",,,,,,,,,,,,,,,,,,,,,,,
2446,ECE Chicago Find a School scrape.csv, Creative Mansion,4745 S. Ellis ,60615,2686066,,,,,,Kenwood,,,,,,,,,,,,,CP,,,,,,,
2771,ECE Chicago Find a School scrape.csv, Skinner,111 S. Throop ,60607,5347790,,,,,,Near West Side,,,,,,,,,,,,,TB,,,,,,,
2324,ECE Chicago Find a School scrape.csv, Beidler,3151 W. Walnut ,60612,5346811,,,,,,East Garfield Park,,,,,,,,,,,,,HS-HD,,,,,,,
2301,ECE Chicago Find a School scrape.csv, Ariel Comm,1119 E. 46th St. ,60653,5351996,,,,,,Kenwood,,,,,,,,,,,,,PFA-REG,,,,,,,
135,CPS_Early_Childhood_Portal_scrape.csv, Christopher House - Christopher House - Uptown,4701 N Winthrop Ave ,,7694540,,Child Care,EXTENDED DAY,,,,,,,,,,,,,,,,,,,,,,,
375,CPS_Early_Childhood_Portal_scrape.csv, Home of Life Just for You,4647 W. Washington ,,6268655,,Community Partnerships,"8-11 Hours, varies by facility",,,,,,,,,,,,,,,,,,,,,,,
2190,DFSS_AgencySiteLies_2012.csv,Henry Booth House Hippity Hop Tiny Tots,11223 S. Halsted St. ,60628,7853340,,,,,,,Henry Booth House,,,,,,,,,,,www.henryboothhouse.org,Scott Perkins,Ms. Tuggle ,,,,,,
228,CPS_Early_Childhood_Portal_scrape.csv, Thresholds Mothers? Project,1110 W. Belmont ,,,,Community Partnerships,"8-11 Hours, varies by facility",,,,,,,,,,,,,,,,,,,,,,,
1396,chapin_dfss_providers_2011_070212.csv,ADA S. MCKINLEY COMMUNITY SERVICES MCKINLEY-TRUMBULL PARK,10530 S OGLESBY ,60617,9785341,,,,,,,ADA S. MCKINLEY COMMUNITY SERVICES,SOUTH DEERING,,,,,Damita Brown,Yes,No,No,7051PS(HS Collaboration with Childcare),,,,,,,,,
421,CPS_Early_Childhood_Portal_scrape.csv, Metropolitan Family Services Midway,6422 S. Kedzie ,,7374790,,Community Partnerships,"8-11 Hours, varies by facility",,,,,,,,,,,,,,,,,,,,,,,
1385,chapin_dfss_providers_2011_070212.csv,ABRAHAM LINCOLN CENTRE ABRAHAM-LINCOLN,3858 S COTTAGE GROVE ,60653,2851390,,,,,,,ABRAHAM LINCOLN CENTRE,OAKLAND,,,,,Charles Ann Stewart,Yes,No,Yes,2749SA(School Age (SA)),,,,,,,,,
3055,purple_binder_early_childhood.csv, Bunnyland Developmental Day Care Center,545 W 119th Street ,60628,5685200,,,,,,,,,,,,,,,,,,,,,,,,,,Child Care
429,CPS_Early_Childhood_Portal_scrape.csv, Eyes on the Future,6969 N. Ravenswood ,,9730771,,Community Partnerships,"8-11 Hours, varies by facility",,,,,,,,,,,,,,,,,,,,,,,
1265,CPS_Early_Childhood_Portal_scrape.csv, Mary Crane League - Mary Crane - East,2974 N Clybourn Ave ,,3485528,,State Pre-Kindergarten,HALF DAY/FULL DAY,,,,,,,,,,,,,,,,,,,,,,,
185,CPS_Early_Childhood_Portal_scrape.csv, Marcy Newberry Association - South Harper Montessori,8358 S Stony Island Ave ,,7340375,,Child Care,EXTENDED DAY,,,,,,,,,,,,,,,,,,,,,,,
536,CPS_Early_Childhood_Portal_scrape.csv, Henry Booth House - Accounters/Partners,1155 W 81st St ,,9945514,,Head Start,HALF DAY/FULL DAY,,,,,,,,,,,,,,,,,,,,,,,
428,CPS_Early_Childhood_Portal_scrape.csv," Fresh Start Daycare, Inc.",6924 W. North Avenue ,,4792870,,Community Partnerships,"8-11 Hours, varies by facility",,,,,,,,,,,,,,,,,,,,,,,
1546,chapin_dfss_providers_2011_070212.csv,"CHICAGO PUBLIC SCHOOLS MCDOWELL, MARY E.",1419 E 89TH ST ,60619,5356404,,,,,,,CHICAGO PUBLIC SCHOOLS,CALUMET HEIGHTS,,,,,Dr. Jo La Tanya Easterling-Hood,Yes,No,No,,,,,,,,,,
399,CPS_Early_Childhood_Portal_scrape.csv, Catholic Charities Grace Mission,5332 S. Western ,,4761990,,Community Partnerships,"8-11 Hours, varies by facility",,,,,,,,,,,,,,,,,,,,,,,
2656,ECE Chicago Find a School scrape.csv, Melody,412 S. Keeler ,60624,5346850,,,,,,West Garfield Park,,,,,,,,,,,,,PFA-REG,,,,,,,
672,CPS_Early_Childhood_Portal_scrape.csv, Cather,2908 W. Washington ,,5346780,,Head Start,5-6 hours,,,,,,,,,,,,,,,,,,,,,,,
2634,ECE Chicago Find a School scrape.csv, Marcy Newberry Austin Town,5610 W. Lake St. ,60644,2611505,,,,,,Austin,,,,,,,,,,,,,CP,,,,,,,
2794,ECE Chicago Find a School scrape.csv, Stewart,4525 N. Kenmore ,60640,5342640,,,,,,Uptown,,,,,,,,,,,,,HS-HD,,,,,,,
1408,chapin_dfss_providers_2011_070212.csv,BOARD TRUSTEES-CITY COLLEGES OF CHICAGO OLIVE-HARVEY COLLEGE,10001 S WOODLAWN ,60628,2916317,,,,,,,BOARD TRUSTEES-CITY COLLEGES OF CHICAGO,PULLMAN,,,,,Tiffany Carter,Yes,No,No,7056PS(HS Collaboration with Childcare & PreK),,,,,,,,,
620,CPS_Early_Childhood_Portal_scrape.csv, Lloyd,2103 N. Lamon ,,5343070,,Head Start,3-4 hours,,,,,,,,,,,,,,,,,,,,,,,
2964,NAEYC_accreditation.csv, Our Lady of Tepeyac ,2414 South Albany Avenue  ,60623,2775888,,,,,,,,,,,,,,,,,,,,,,01/31/13,486949,pgutierr@catholiccharities.net,,
2017,DFSS_AgencySiteLies_2012.csv,"Chicago Public Schools Hinton, William Augustus",644 W. 71st Street ,60621,5353875,,,,,,,Chicago Public Schools,,,,,,,,,,,www.cps.edu,Paula Cottone,Ms. Pamela Brunson-Allen,,,,,,
443,CPS_Early_Childhood_Portal_scrape.csv, Chicago Commons NIA,744 N. Monticello ,,8264259,,Community Partnerships,"8-11 Hours, varies by facility",,,,,,,,,,,,,,,,,,,,,,,
897,CPS_Early_Childhood_Portal_scrape.csv, Ferguson CPC,1420 N. Hudson ,,5348580,,Head Start/Child Parent Center,"8-11 Hours, varies by facility",,,,,,,,,,,,,,,,,,,,,,,
2095,DFSS_AgencySiteLies_2012.csv,Chicago State University Tiny Tots Villa,8128 S. King Dr. ,60641,4836251,,,,,,,Chicago State University,,,,,,,,,,,www.gamechicago.org,Grace Ratliff,Judith Tyson,,,,,,
1060,CPS_Early_Childhood_Portal_scrape.csv, Prussing,4650 N. Menard ,,5343460,,Prekindergarten For All,3-4 hours,,,,,,,,,,,,,,,,,,,,,,,
1560,chapin_dfss_providers_2011_070212.csv,"CHICAGO PUBLIC SCHOOLS PEABODY, ELIZABETH",1444 W AUGUSTA BLVD ,60622,5344170,,,,,,,CHICAGO PUBLIC SCHOOLS,WEST TOWN,,,,,Mr. Federico  Flores,Yes,No,No,,,,,,,,,,
1644,chapin_dfss_providers_2011_070212.csv,EASTER SEALS SOCIETY OF METROPOLITAN CHICAGO LORDANCHILD DAYCARE,3344 W 79TH ST ,60652,4344918,,,,,,,EASTER SEALS SOCIETY OF METROPOLITAN CHICAGO,ASHBURN,,,,,Quentin Donald,Yes,No,No,,,,,,,,,,
211,CPS_Early_Childhood_Portal_scrape.csv, Dewey CPC,638 W. 54Th Pl. ,,5351671,,Child Parent Center,3-4 hours,,,,,,,,,,,,,,,,,,,,,,,
2096,DFSS_AgencySiteLies_2012.csv,Chicago Youth Centers ABC,3415 W. 13th Pl. ,60623,7625655,,,,,,,Chicago Youth Centers,,,,,,,,,,,www.chicagoyouthcenters.org,Harry Wells,Tamarra White ,,,,,,
2852,ECE Chicago Find a School scrape.csv, YMCA High Ridge,2424 W Touhy ,60645,2716120,,,,,,West Ridge,,,,,,,,,,,,,CP,,,,,,,
2255,DFSS_AgencySiteLies_2012.csv,Onward Neighborhood House Onward Neighborhood House - West Town,600 N. Leavitt St. ,60612,6666726,,,,,,,Onward Neighborhood House,,,,,,,,,,,www.onwardhouse.org,Mario Garcia,Darica Charles,,,,,,
625,CPS_Early_Childhood_Portal_scrape.csv, Chinese American Service League - Chinese American Service League,2141 S Tan Ct ,,7910418,,Head Start,HALF DAY/FULL DAY,,,,,,,,,,,,,,,,,,,,,,,
3182,purple_binder_early_childhood.csv, Hyde Park Neighborhood Club,5480 S Kenwood Avenue ,60615,6434062,,,,,,,,,,,,,,,,,,,,,,,,,,Child Care
3251,purple_binder_early_childhood.csv, Saint Bronislava Early Childhood Center,8716 S Colfax Avenue ,60617,6557305,,,,,,,,,,,,,,,,,,,,,,,,,,Child Care
988,CPS_Early_Childhood_Portal_scrape.csv, Carroll-Rosenwald Br,2541 W. 80th St ,,5359355,,Prekindergarten For All,3-4 hours,,,,,,,,,,,,,,,,,,,,,,,
655,CPS_Early_Childhood_Portal_scrape.csv, El Valor - Teddy Bear 1 51st Street,2649 W 51st St ,,,,Head Start,HALF DAY/FULL DAY,,,,,,,,,,,,,,,,,,,,,,,
312,CPS_Early_Childhood_Portal_scrape.csv, Mary Crane West,2820 N. Leavitt ,,3485528,,Community Partnerships,"8-11 Hours, varies by facility",,,,,,,,,,,,,,,,,,,,,,,
2216,DFSS_AgencySiteLies_2012.csv,Henry Booth House Wee Wee Center for Creative,2434 W 71ST St. ,60629,4710869,,,,,,,Henry Booth House,,,,,,,,,,,www.henryboothhouse.org,Scott Perkins,Ms. Duckery,,,,,,
803,CPS_Early_Childhood_Portal_scrape.csv, Fiske,6145 S. Ingleside ,,5350990,,Head Start,5-6 hours,,,,,,,,,,,,,,,,,,,,,,,
1334,IDHS_child_care_provider_list.csv," Childcare Network
of Evanston","1416 Lake Street,
Evanston",60201,4752661,"(847)
475-2699",,,7767-4532-7633-003,,,,,,,,,,,,,,,,,,,,,,
826,CPS_Early_Childhood_Portal_scrape.csv, Abraham Lincoln Centre - Lincoln - Roseland,7 E 119th St ,,2647632,,Head Start,HALF DAY/FULL DAY,,,,,,,,,,,,,,,,,,,,,,,
1542,chapin_dfss_providers_2011_070212.csv,"CHICAGO PUBLIC SCHOOLS MAYO, WILLIAM J. & CHARLES H.",249 E 39TH ST ,60653,5351260,,,,,,,CHICAGO PUBLIC SCHOOLS,GRAND BOULEVARD,,,,,Ms. Nadine D.  Dillanado,Yes,No,No,,,,,,,,,,
1181,CPS_Early_Childhood_Portal_scrape.csv, Chinese American Service League - Chinese American Service League,2141 S Tan Ct ,,7910418,,School Age,PART DAY/FULL DAY,,,,,,,,,,,,,,,,,,,,,,,
2234,DFSS_AgencySiteLies_2012.csv,Marcy Newberry Association Marcy Center,1539 S. Springfield ,60623,7622300,,,,,,,Marcy Newberry Association,,,,,,,,,,,www.marcy-newberry.org,Gertrude Ricks,Barbara Tucker ,,,,,,
1449,chapin_dfss_providers_2011_070212.csv,CHICAGO COMMONS ASSOCIATION CHILDREN'S WORLD,3356 S ASHLAND ,60609,5230100,,,,,,,CHICAGO COMMONS ASSOCIATION,MCKINLEY PARK,,,,,,Yes,No,No,,,,,,,,,,
2125,DFSS_AgencySiteLies_2012.csv,Easter Seals Society of Metropolitan Chicago FIFTH CITY,3411 W Jackson ,60624,8268686,,,,,,,Easter Seals Society of Metropolitan Chicago,,,,,,,,,,,www.easterseaslchicago.org,Barbara Zawacki,Ms.Bettie Veal,,,,,,
175,CPS_Early_Childhood_Portal_scrape.csv, Chicago Commons Association - Nia Family Center,744 N Monticello Ave ,,8266971,,Child Care,EXTENDED DAY,,,,,,,,,,,,,,,,,,,,,,,
1368,chapin_ounce_providers_2011_071112.csv,"Healthy Parents and Babies Program
(Directly Operated Programs) Hayes Center","4859 S. Wabash Ave.
2nd floor
",60615,3738670,,,,,"Healthy Parents and Babies Program
(Directly Operated Programs)","Grand Boulevard, Kenwood, Washington Park
Brighton Park 
McKinley Park
West Humboldt Park ","57 
Early Head Start","Early Head Start
Services to Pregnant Women

Early Head Start 
Home Based",57,"--




",,,,,,,,,,,,,,,,
2186,DFSS_AgencySiteLies_2012.csv,Henry Booth House Color For Tots,2550 E. 73rd St. ,60649,3638687,,,,,,,Henry Booth House,,,,,,,,,,,www.henryboothhouse.org,Scott Perkins,Cassandra Williams ,,,,,,
2755,ECE Chicago Find a School scrape.csv, Salvation Army New Hope,4255 W. Division  ,60651,7724908,,,,,,Humboldt Park,,,,,,,,,,,,,CP,,,,,,,
2683,ECE Chicago Find a School scrape.csv, Newberry Magnet,700 W. Willow ,60614,5348000,,,,,,Lincoln Park,,,,,,,,,,,,,TB,,,,,,,
2307,ECE Chicago Find a School scrape.csv, Audubon,3500 N. Hoyne ,60618,5345470,,,,,,North Center,,,,,,,,,,,,,TB,,,,,,,
1911,DFSS_AgencySiteLies_2012.csv,"Ada S. McKinley
Community Services McKinley-Ersula Howard",7222 S. Exchange ,60649,2219711,,,,,,,"Ada S. McKinley
Community Services",,,,,,,,,,,www.adasmckinley.org,"George Jones, Jr.",Joni Rudds,,,,,,
3181,purple_binder_early_childhood.csv, Human Resources Development Institute,222 S Jefferson Street ,60661,4686959,,,,,,,,,,,,,,,,,,,,,,,,,,Child Care
3232,purple_binder_early_childhood.csv, Metropolitan Family Services Children's Center,3215 W 63rd Street ,60629,8842350,,,,,,,,,,,,,,,,,,,,,,,,,,Child Care
2214,DFSS_AgencySiteLies_2012.csv,Henry Booth House The World Is Yours,8026 S Cottage Grove Ave. ,60619,,,,,,,,Henry Booth House,,,,,,,,,,,www.henryboothhouse.org,Scott Perkins,,,,,,,
999,CPS_Early_Childhood_Portal_scrape.csv, Hammond,2819 W. 21st Place ,,5354580,,Prekindergarten For All,3-4 hours,,,,,,,,,,,,,,,,,,,,,,,
348,CPS_Early_Childhood_Portal_scrape.csv, Ada S. McKinley St. Thomas CDC,3801 S. Wabash ,,2850617,,Community Partnerships,"8-11 Hours, varies by facility",,,,,,,,,,,,,,,,,,,,,,,
2495,ECE Chicago Find a School scrape.csv, Erie House,1701 W. Superior ,60622,5635800,,,,,,West Town,,,,,,,,,,,,,CP,,,,,,,
256,CPS_Early_Childhood_Portal_scrape.csv, Chicago Commons Paulo Freire,1653 W. 43rd Street ,,8266260,,Community Partnerships,"8-11 Hours, varies by facility",,,,,,,,,,,,,,,,,,,,,,,
638,CPS_Early_Childhood_Portal_scrape.csv, Cardenas,2345 S. Millard ,,5341465,,Head Start,3-4 hours,,,,,,,,,,,,,,,,,,,,,,,
1087,CPS_Early_Childhood_Portal_scrape.csv, Ray,5631 S Kimbark ,,5350970,,Prekindergarten For All,3-4 hours,,,,,,,,,,,,,,,,,,,,,,,
723,CPS_Early_Childhood_Portal_scrape.csv, Ada S. McKinley Community Services - McKinley - St. Thomas,3801 S Wabash Ave ,,2850617,,Head Start,HALF DAY/FULL DAY,,,,,,,,,,,,,,,,,,,,,,,
1540,chapin_dfss_providers_2011_070212.csv,"CHICAGO PUBLIC SCHOOLS MASON, ROSWELL B.",4216 W 19TH ST ,60623,5341530,,,,,,,CHICAGO PUBLIC SCHOOLS,NORTH LAWNDALE,,,,,Ms. Tonya  Tolbert,Yes,No,No,,,,,,,,,,
1438,chapin_dfss_providers_2011_070212.csv,CATHOLIC CHARITIES OF THE ARCHDIOCESE OF CHICAGO GRACE MISSION,5332 S WESTERN ,60609,4761990,,,,,,,CATHOLIC CHARITIES OF THE ARCHDIOCESE OF CHICAGO,GAGE PARK,,,,,Francine Johnson,Yes,No,Yes,"3416PS(HS Collaboration with Childcare & PreK), 2711PS(Child",,,,,,,,,
2413,ECE Chicago Find a School scrape.csv, ChildServ West Englewood,1711 W. Garfield Blvd. ,60636,8677350,,,,,,West Englewood,,,,,,,,,,,,,CP,,,,,,,
2201,DFSS_AgencySiteLies_2012.csv,Henry Booth House Little Hands & Feet,7801 S Wolcott ,60620,9948561,,,,,,,Henry Booth House,,,,,,,,,,,www.henryboothhouse.org,Scott Perkins,Ms. Doyle ,,,,,,
89,CPS_Early_Childhood_Portal_scrape.csv, Henry Booth House - Near South / Henry Booth,2929 S Wabash Ave ,,7910424,,Child Care,EXTENDED DAY,,,,,,,,,,,,,,,,,,,,,,,
2933,NAEYC_accreditation.csv, Kidwatch Plus ,3901 North Ridgeway  ,60618,5395431,,,,,,,,,,,,,,,,,,http://www.kidwatchplus.com,,,,09/30/12,486945,info@kidwatchplus.com,,
1446,chapin_dfss_providers_2011_070212.csv,CHICAGO COMMONS ASSOCIATION A-Z MALL WORLD,2629 S LAWNDALE ,60623,,,,,,,,CHICAGO COMMONS ASSOCIATION,SOUTH LAWNDALE,,,,,,Yes,No,No,,,,,,,,,,
3057,purple_binder_early_childhood.csv, C.C.C. Learning Center,610 S Canal Street ,60606,3538687,,,,,,,,,,,,,,,,,,,,,,,,,,Child Care
603,CPS_Early_Childhood_Portal_scrape.csv, Yates,1839 N. Richmond ,,5344550,,Head Start,5-6 hours,,,,,,,,,,,,,,,,,,,,,,,
859,CPS_Early_Childhood_Portal_scrape.csv, Henry Booth House - Pink's Child Care Academy,8236 S Kedzie Ave ,,8637465,,Head Start,HALF DAY/FULL DAY,,,,,,,,,,,,,,,,,,,,,,,
2499,ECE Chicago Find a School scrape.csv, Eyes on the Future,1329 W. Loyola ,60626,9730771,,,,,,Rogers Park,,,,,,,,,,,,,CP,,,,,,,
3075,purple_binder_early_childhood.csv, Catholic Charities Chicago - St. Michael,8235 S Shore Drive ,60617,9337676,,,,,,,,,,,,,,,,,,,,,,,,,,Child Care
2981,NAEYC_accreditation.csv, St. Vincent de Paul Center,2145 North Halsted Street  ,60614,9436776,,,,,,,,,,,,,,,,,,http://www.svdpc.org,,,,12/01/15,597629,dhamilto@svdpc.org,,
2963,NAEYC_accreditation.csv, Orr Infant and Family Development Center,730 North Pulaski Road  ,60624,8261090,,,,,,,,,,,,,,,,,,http://www.hullhouse.org,,,,07/31/14,399578,reneeboyd@hullhouse.org,,
2651,ECE Chicago Find a School scrape.csv, McCutcheon,4846 N. Sheridan Rd ,60640,5342680,,,,,,Uptown,,,,,,,,,,,,,HS-HD,,,,,,,
56,CPS_Early_Childhood_Portal_scrape.csv, Board Trustees-City Colleges of Chicago - Malcolm X College,1900 W Van Buren St ,,8507000,,Child Care,EXTENDED DAY,,,,,,,,,,,,,,,,,,,,,,,
2424,ECE Chicago Find a School scrape.csv, Christopher House Uptown I/T,4701 N. Winthorp ,60640,7694540,,,,,,Uptown,,,,,,,,,,,,,CP,,,,,,,
2903,NAEYC_accreditation.csv, Corporate Childcare Consultants ,219 South Dearborn Second Floor ,60604,3533796,,,,,,,,,,,,,,,,,,,,,,01/31/13,291362,ccclearningcenter78@comcast.net,,
811,CPS_Early_Childhood_Portal_scrape.csv, Reed,6350 S. Stewart ,,5353075,,Head Start,5-6 hours,,,,,,,,,,,,,,,,,,,,,,,
3056,purple_binder_early_childhood.csv, C.C.C. Learning Center,78 W Van Buren Street ,60605,4273342,,,,,,,,,,,,,,,,,,,,,,,,,,Child Care
3,CPS_Early_Childhood_Portal_scrape.csv, National Louis University - Dr. Effie O. Ellis Training Center,10 S Kedzie Ave ,,5339011,,Child Care,EXTENDED DAY,,,,,,,,,,,,,,,,,,,,,,,
1639,chapin_dfss_providers_2011_070212.csv,EASTER SEALS SOCIETY OF METROPOLITAN CHICAGO GILCHRIST MARCHMAN,1001 W ROOSEVELT RD 606 ,81559,4927402,,,,,,,EASTER SEALS SOCIETY OF METROPOLITAN CHICAGO,NEAR WEST SIDE,,,,,Ms. Adrienne Hamilton,Yes,Yes,Yes,"4249IT(Child Care IT Center), 7012PS(HS Collaboration with C",,,,,,,,,
2098,DFSS_AgencySiteLies_2012.csv,Chicago Youth Centers Cuddle Care Academy,4800 S Lake Park Ave ,60615,2851114,,,,,,,Chicago Youth Centers,,,,,,,,,,,www.chicagoyouthcenters.org,Harry Wells,Robbin Cole ,,,,,,
1608,chapin_dfss_providers_2011_070212.csv,CHICAGO YOUTH CENTERS EZZARD CHARLES SCHOOL,7946 S ASHLAND AVE ,60620,4870227,,,,,,,CHICAGO YOUTH CENTERS,AUBURN GRESHAM,,,,,Eldora Davis,Yes,No,No,,,,,,,,,,
3235,purple_binder_early_childhood.csv, New Pisgah Day Care Center,8130 S Racine Avenue ,60620,8735392,,,,,,,,,,,,,,,,,,,,,,,,,,Child Care
1236,CPS_Early_Childhood_Portal_scrape.csv, Ada S. McKinley Community Services - McKinley - Roseland,11410 S Edbrooke Ave ,,4681918,,State Pre-Kindergarten,HALF DAY/FULL DAY,,,,,,,,,,,,,,,,,,,,,,,
998,CPS_Early_Childhood_Portal_scrape.csv, Whitney,2815 S. Komensky ,,5341560,,Prekindergarten For All,3-4 hours,,,,,,,,,,,,,,,,,,,,,,,
113,CPS_Early_Childhood_Portal_scrape.csv, El Valor - Teddy Bear 2 Columbus,3473 W Columbus ,,,,Child Care,EXTENDED DAY,,,,,,,,,,,,,,,,,,,,,,,
2242,DFSS_AgencySiteLies_2012.csv,Mary Crane League Mary Crane Center (North),2905 N. Leavitt ,60618,9388130,,,,,,,Mary Crane League,,,,,,,,,,,www.marycrane.org,Lavetter Terry,Martuice Williams ,,,,,,
1038,CPS_Early_Childhood_Portal_scrape.csv, Westcott,409 W. 80Th St. ,,5353090,,Prekindergarten For All,3-4 hours,,,,,,,,,,,,,,,,,,,,,,,
3060,purple_binder_early_childhood.csv, Care-a-Lot Child Development Center,6441 N Central Avenue ,60646,7638888,,,,,,,,,,,,,,,,,,,,,,,,,,Child Care
1134,CPS_Early_Childhood_Portal_scrape.csv, Cook,8150 S. Bishop ,,5353315,,Prekindergarten For All,3-4 hours,,,,,,,,,,,,,,,,,,,,,,,
3041,purple_binder_early_childhood.csv, Albany Park Community Center - Kimball,5121 N Kimball Avenue ,60625,5095650,,,,,,,,,,,,,,,,,,,,,,,,,,Child Care
1217,CPS_Early_Childhood_Portal_scrape.csv, South East Asia Center - South-East Asia Center(Broadway),5120 N Broadway Ave ,,,,School Age,PART DAY/FULL DAY,,,,,,,,,,,,,,,,,,,,,,,
2055,DFSS_AgencySiteLies_2012.csv,Chicago Public Schools Peck School,4026 W. 59th Street ,60629,5352450,,,,,,,Chicago Public Schools,,,,,,,,,,,www.cps.edu,Paula Cottone,Okab Hassan,,,,,,
3037,purple_binder_early_childhood.csv, Ada S. McKinley Community Services - Wright Renaissance,7939 S Western Avenue ,60620,4768805,,,,,,,,,,,,,,,,,,,,,,,,,,Child Care
1495,chapin_dfss_providers_2011_070212.csv,"CHICAGO PUBLIC SCHOOLS DEPRIEST, OSCAR",139 S PARKSIDE AVE ,60639,5346800,,,,,,,CHICAGO PUBLIC SCHOOLS,AUSTIN,,,,,Minnie Watson,Yes,No,No,,,,,,,,,,
2827,ECE Chicago Find a School scrape.csv," Ward, Laura",410 N. Monticello ,60624,5346440,,,,,,Humboldt Park,,,,,,,,,,,,,HS-HD,,,,,,,
1044,CPS_Early_Childhood_Portal_scrape.csv, Henry,4250 N. St. Louis ,,5345060,,Prekindergarten For All,3-4 hours,,,,,,,,,,,,,,,,,,,,,,,
1274,CPS_Early_Childhood_Portal_scrape.csv, Centers For New Horizons - Edison L. Hoard Learning Center,3901 S State St ,,5362187,,State Pre-Kindergarten,HALF DAY/FULL DAY,,,,,,,,,,,,,,,,,,,,,,,
2038,DFSS_AgencySiteLies_2012.csv,"Chicago Public Schools McCormick, Cyrus H.",2712 S Sawyer Ave. ,60623,5357252,,,,,,,Chicago Public Schools,,,,,,,,,,,www.cps.edu,Paula Cottone,Ms. Cristina Romo,,,,,,
965,CPS_Early_Childhood_Portal_scrape.csv, Sayre Lang Acad,1850 N. Newland ,,5343351,,Prekindergarten For All,3-4 hours,,,,,,,,,,,,,,,,,,,,,,,
1526,chapin_dfss_providers_2011_070212.csv,"CHICAGO PUBLIC SCHOOLS HURLEY, EDWARD N.",3849 W 69TH PLACE ,60629,5352068,,,,,,,CHICAGO PUBLIC SCHOOLS,WEST LAWN,,,,,Mrs. Dolores  Cupp,Yes,No,No,,,,,,,,,,
571,CPS_Early_Childhood_Portal_scrape.csv, Catholic Charities of the Archdiocese of Chicago - Our Lady of Lourdes,1449 S Keeler Ave ,,5213126,,Head Start,HALF DAY/FULL DAY,,,,,,,,,,,,,,,,,,,,,,,
1090,CPS_Early_Childhood_Portal_scrape.csv, Norwood Park,5900 N. Nina ,,5341198,,Prekindergarten For All,3-4 hours,,,,,,,,,,,,,,,,,,,,,,,
3096,purple_binder_early_childhood.csv, Chicago Department of Human Services - South Chicago,8759 S Commercial Avenue ,60617,7470331,,,,,,,,,,,,,,,,,,,,,,,,,,Child Care
2412,ECE Chicago Find a School scrape.csv, ChildServ St. Matthew,1000 N. Orleans  ,60610,9443403,,,,,,Near North Side,,,,,,,,,,,,,CP,,,,,,,
57,CPS_Early_Childhood_Portal_scrape.csv, Board Trustees-City Colleges of Chicago - Malcolm X College,1900 W Van Buren St ,,8507000,,Child Care,EXTENDED DAY,,,,,,,,,,,,,,,,,,,,,,,
1032,CPS_Early_Childhood_Portal_scrape.csv, Gregory,3715 W. Polk Street ,,5346820,,Prekindergarten For All,3-4 hours,,,,,,,,,,,,,,,,,,,,,,,
883,CPS_Early_Childhood_Portal_scrape.csv," Trinity Resources Unlimited, Inc. - High Mountain",919 N Lavergne Ave ,,6263994,,Head Start,HALF DAY/FULL DAY,,,,,,,,,,,,,,,,,,,,,,,
837,CPS_Early_Childhood_Portal_scrape.csv, Henry Booth House - Love N Learn Academy,723 E 75th St ,,7230338,,Head Start,HALF DAY/FULL DAY,,,,,,,,,,,,,,,,,,,,,,,
1350,IDHS_child_care_provider_list.csv, Mary Crane League,2974 North Clybourn Avenue,60618,9388157,"(773)
325-2530",,,9356-4723-5433-005,,,,,,,,,,,,,,,,,,,,,,
3223,purple_binder_early_childhood.csv, Marcy Newberry Association - North Austin Headstart,1256 N Waller Avenue ,60651,2611700,,,,,,,,,,,,,,,,,,,,,,,,,,Child Care
2705,ECE Chicago Find a School scrape.csv, Ounce of Prev EC Center,5044 S Wabash ,60615,9242334,,,,,,Grand Boulevard,,,,,,,,,,,,,CP,,,,,,,
2870,NAEYC_accreditation.csv, Albany Park Community Center - Uptown,1020 West Bryn Mawr 211 ,60660,7693197,,,,,,,,,,,,,,,,,,http://www.apcc.org,,,,01/31/13,486804,mabarca@apcc-chgo.org,,
2228,DFSS_AgencySiteLies_2012.csv,Lutheran Social Services of Illinois TRINIDAD LUTHERAN,2921 W. Division ,60622,6354600,,,,,,,Lutheran Social Services of Illinois,,,,,,,,,,,www.lssi.org,John Schnier,Emilia Espinal ,,,,,,
1505,chapin_dfss_providers_2011_070212.csv,"CHICAGO PUBLIC SCHOOLS FINKL, WILLIAM F.",2332 S WESTERN AVE ,60608,5355850,,,,,,,CHICAGO PUBLIC SCHOOLS,LOWER WEST SIDE,,,,,Mr. Abelino Quintero,Yes,No,No,,,,,,,,,,
35,CPS_Early_Childhood_Portal_scrape.csv, Chicago Youth Centers - Mt. Moriah-Taylor / CYC,1501 N Harding Ave ,,2785837,,Child Care,EXTENDED DAY,,,,,,,,,,,,,,,,,,,,,,,
2910,NAEYC_accreditation.csv, Easter Seals Near South Side Child Development Center,2214 South Federal Street  ,60616,5483614,,,,,,,,,,,,,,,,,,http://www.eastersealschicago.org,,,,10/01/16,723005,crokusek@eastersealschicago.org,,
160,CPS_Early_Childhood_Portal_scrape.csv, El Valor - Kidz Colony,6287 S Archer Ave ,,7678522,,Child Care,EXTENDED DAY,,,,,,,,,,,,,,,,,,,,,,,
3317,purple_binder_early_childhood.csv, Erie Neighborhood House,1347 W Erie Street ,60642,6663430,,,,,,,,,,,,,,,,,,,,,,,,,,Early Head Start
450,CPS_Early_Childhood_Portal_scrape.csv, Ada S. McKinley Wright Renaissance,7939 S. Western ,,4768805,,Community Partnerships,"8-11 Hours, varies by facility",,,,,,,,,,,,,,,,,,,,,,,
3264,purple_binder_early_childhood.csv, South Shore Bible Baptist Church Marantha,1631 E 71st Street ,60649,4937500,,,,,,,,,,,,,,,,,,,,,,,,,,Child Care
1439,chapin_dfss_providers_2011_070212.csv,CATHOLIC CHARITIES OF THE ARCHDIOCESE OF CHICAGO OUR LADY OF LOURDES,1449 S KEELER ,60623,5213126,,,,,,,CATHOLIC CHARITIES OF THE ARCHDIOCESE OF CHICAGO,NORTH LAWNDALE,,,,,Deborah O'Brien,Yes,No,Yes,"2488IT(Child Care IT Center), 7030PS(HS Collaboration with C",,,,,,,,,
2998,NAEYC_accreditation.csv, YMCA Marshall Child Development Center,3201 West Monroe  ,60624,2650145,,,,,,,,,,,,,,,,,,http://ymcachgo.org,,,,11/01/15,726003,bross@ymcachicago.org,,
3004,Ounce of Prevention - Site Locations.csv, Casa Central - ABC Home-Based Head Start,"1349 N. California
",60622,6452404,,,,,,,,,,,,,,,,,,,,,,,Humboldt Park Community, Serves children ages 3-5,,
2787,ECE Chicago Find a School scrape.csv, St Augustine - Nayarit HS,2610 W. 25th Pl. ,60608,8783653,,,,,,South Lawndale,,,,,,,,,,,,,CP,,,,,,,
1573,chapin_dfss_providers_2011_070212.csv,"CHICAGO PUBLIC SCHOOLS SANDOVAL, SOCORRO",5534 S SAINT LOUIS AVE ,60629,5350457,,,,,,,CHICAGO PUBLIC SCHOOLS,GAGE PARK,,,,,Dr. Ana Expinoza,Yes,No,No,,,,,,,,,,
874,CPS_Early_Childhood_Portal_scrape.csv, Henry Booth House - Little Elite Childcare,8748 S Aberdeen St ,,4887988,,Head Start,HALF DAY/FULL DAY,,,,,,,,,,,,,,,,,,,,,,,
1302,CPS_Early_Childhood_Portal_scrape.csv, Ada S. McKinley Community Services - McKinley - Howard,7222 S Exchange Ave ,,2219711,,State Pre-Kindergarten,HALF DAY/FULL DAY,,,,,,,,,,,,,,,,,,,,,,,
2274,DFSS_AgencySiteLies_2012.csv,Trinity Resources Unlimited Inc High Mountain,919 N. Lavergne ,60651,6263997,,,,,,,Trinity Resources Unlimited Inc,,,,,,,,,,,,Marion Hayes,Marion Hayes,,,,,,
2183,DFSS_AgencySiteLies_2012.csv,Henry Booth House Angel Wings,5365 W Noth ,60639,7450262,,,,,,,Henry Booth House,,,,,,,,,,,www.henryboothhouse.org,Scott Perkins,Lisa Collins,,,,,,
2267,DFSS_AgencySiteLies_2012.csv,Salvation Army Teen Parenting Program,1548 W Adams ,60607,4210327,,,,,,,Salvation Army,,,,,,,,,,,www.usc.salvationarmy.com,Claudia Rowland,Jasmin Marshall,,,,,,
1298,CPS_Early_Childhood_Portal_scrape.csv, Trinity United Church of Christ - Dr. Denton J. Brooks Center,6921 S Stony Island Ave ,,9552818,,State Pre-Kindergarten,HALF DAY/FULL DAY,,,,,,,,,,,,,,,,,,,,,,,
2978,NAEYC_accreditation.csv, St. Augustine College/Flamboyan Head Start ,3401 W. McLean Avenue  ,60647,2763423,,,,,,,,,,,,,,,,,,,,,,01/31/13,511412,egalan@staugustine.edu,,
1857,chapin_dfss_providers_2011_070212.csv,ONWARD NEIGHBORHOOD HOUSE LEE'S CUDDLES N CARE,6100 W NORTH AVENUE ,60639,7458054,,,,,,,ONWARD NEIGHBORHOOD HOUSE,AUSTIN,,,,,Anndrella Lee,Yes,No,No,,,,,,,,,,
511,CPS_Early_Childhood_Portal_scrape.csv, National Louis University - Dr. Effie O. Ellis Training Center,10 S Kedzie Ave ,,5339011,,Head Start,HALF DAY/FULL DAY,,,,,,,,,,,,,,,,,,,,,,,
1056,CPS_Early_Childhood_Portal_scrape.csv, Waters,4540 N. Campbell ,,5345090,,Prekindergarten For All,3-4 hours,,,,,,,,,,,,,,,,,,,,,,,
1366,IDHS_child_care_provider_list.csv, YWCA of Kankakee,1086 East Court Street Kankakee,60901,9334516,"(815)
935-0015",,,3261-3053-5433-005,,,,,,,,,,,,,,,,,,,,,,
1914,DFSS_AgencySiteLies_2012.csv,"Ada S. McKinley
Community Services McKinley-Trumbull Park",10530 S. Oglesby ,60617,9785341,,,,,,,"Ada S. McKinley
Community Services",,,,,,,,,,,www.adasmckinley.org,"George Jones, Jr.",Damita Collins,,,,,,
2168,DFSS_AgencySiteLies_2012.csv,Firman Community Services Firman West II SA 4644 S. Dearborn,4644 S. Dearborn ,60609,3733400,,,,,,,Firman Community Services,,,,,,,,,,, www.firmancs.org,Marguerite Young,Dontrease Thomas,,,,,,
1620,chapin_dfss_providers_2011_070212.csv,CHICAGO YOUTH CENTERS ROSELAND CHILD DEVELOPMENT,461 E 111TH ST ,60627,4684405,,,,,,,CHICAGO YOUTH CENTERS,ROSELAND,,,,,Leola Clay,Yes,No,No,7066PS(HS Collaboration with Childcare & PreK),,,,,,,,,
2871,NAEYC_accreditation.csv, Albany Park Head Start,5101 N. Kimball  ,60625,5095657,,,,,,,,,,,,,,,,,,http://www.apcc-chgo.org,,,,12/31/12,486881,,,
710,CPS_Early_Childhood_Portal_scrape.csv, YMCA of Metropolitan Chicago - Logan Square - First Lutheran YMCA,3500 W Fullerton Ave ,,8625960,,Head Start,HALF DAY/FULL DAY,,,,,,,,,,,,,,,,,,,,,,,
1170,CPS_Early_Childhood_Portal_scrape.csv, Better Boys Foundation - Better Boys Fndn Family Service,1512 S Pulaski St ,,2779582,,School Age,PART DAY/FULL DAY,,,,,,,,,,,,,,,,,,,,,,,
2677,ECE Chicago Find a School scrape.csv, NE Ill Univ Child Care Center,5500 N. St Louis ,60625,5390570,,,,,,North Park,,,,,,,,,,,,,CP,,,,,,,
448,CPS_Early_Childhood_Portal_scrape.csv, Archdiocese of Chicago - St. Sabina Academy,7800 S. Throop St. ,,4835000,,Community Partnerships,"8-11 Hours, varies by facility",,,,,,,,,,,,,,,,,,,,,,,
289,CPS_Early_Childhood_Portal_scrape.csv, Casa Central - Casa Infantil Child Development Program,2222 N. Kedzie Ave. ,,7721170,,Community Partnerships,"8-11 Hours, varies by facility",,,,,,,,,,,,,,,,,,,,,,,
1521,chapin_dfss_providers_2011_070212.csv,"CHICAGO PUBLIC SCHOOLS HERBERT, VICTOR",2131 W MONROE ,60612,5347806,,,,,,,CHICAGO PUBLIC SCHOOLS,NEAR WEST SIDE,,,,,Ms. Denise J.  Gillespie,Yes,No,No,,,,,,,,,,
1423,chapin_dfss_providers_2011_070212.csv,CAROLE ROBERTSON CENTER FOR LEARNING FCCH-MARIA CEPEDA,4500 S SAWYER AVE ,60632,,,,,,,,CAROLE ROBERTSON CENTER FOR LEARNING,BRIGHTON PARK,,,,,Jolene Martin,No,No,No,"5976PS(HS Collaboration with Childcare Homes), 5976IP(EHS Co",,,,,,,,,
78,CPS_Early_Childhood_Portal_scrape.csv, Christopher House - Christopher House - Logan Square,2610 N Francisco Ave ,,2354073,,Child Care,EXTENDED DAY,,,,,,,,,,,,,,,,,,,,,,,
30,CPS_Early_Childhood_Portal_scrape.csv, Abraham Lincoln Centre - Hope Presbyterian Church,1354 W 61st St ,,4715100,,Child Care,EXTENDED DAY,,,,,,,,,,,,,,,,,,,,,,,
973,CPS_Early_Childhood_Portal_scrape.csv, Mozart,2200 N. Hamlin ,,5344160,,Prekindergarten For All,5-6 hours,,,,,,,,,,,,,,,,,,,,,,,
1775,chapin_dfss_providers_2011_070212.csv,HOWARD AREA COMMUNITY CENTER HOWARD AREA,7510 N ASHLAND ,60626,2626622,,,,,,,HOWARD AREA COMMUNITY CENTER,ROGERS PARK,,,,,Stephania Koliarakis,Yes,No,Yes,"7071PS(HS Collaboration with Childcare & PreK), 2765PS(Child",,,,,,,,,
116,CPS_Early_Childhood_Portal_scrape.csv, Carole Robertson Center For Learning - Carole Robertson Center- Ogden 3701,3701 W Ogden Ave ,,5228400,,Child Care,EXTENDED DAY,,,,,,,,,,,,,,,,,,,,,,,
1945,DFSS_AgencySiteLies_2012.csv,"Chicago Commons
Association Diversey Day Care","3007 W Diversey, Chicago ",60647,3427777,,,,,"Chicago Commons
Association",,,,,,,,,,,www.chicagocommons.org,Dan Valliere,Sharon Holiday,,,,,,,,
1313,CPS_Early_Childhood_Portal_scrape.csv, Skinner,111 S. Throop ,,5347790,,Tuition Based Preschool,"8-11 Hours, varies by facility",,,,,,,,,,,,,,,,,,,,,,,
683,CPS_Early_Childhood_Portal_scrape.csv, Henry Booth House - Little Leaders of Tomorrow,301 N Mayfield Ave ,,3788302,,Head Start,HALF DAY/FULL DAY,,,,,,,,,,,,,,,,,,,,,,,
1154,CPS_Early_Childhood_Portal_scrape.csv, Kozminski Com Acad,936 E. 54Th ,,5350980,,Prekindergarten For All,3-4 hours,,,,,,,,,,,,,,,,,,,,,,,
1992,DFSS_AgencySiteLies_2012.csv,"Chicago Public Schools Doolittle, James R.",535 East 35th Street ,60653,5351040,,,,,,,Chicago Public Schools,,,,,,,,,,,www.cps.edu,Paula Cottone,Ms. Lauren Norwood,,,,,,
3221,purple_binder_early_childhood.csv, Marcy Newberry Association - Austin Town Hall,5610 W Lake Street ,60644,2611505,,,,,,,,,,,,,,,,,,,,,,,,,,Child Care
410,CPS_Early_Childhood_Portal_scrape.csv, Kiddy Kare Preschools Little Learners,5923 W. 63rd St. ,,5815541,,Community Partnerships,"8-11 Hours, varies by facility",,,,,,,,,,,,,,,,,,,,,,,
484,CPS_Early_Childhood_Portal_scrape.csv, ChildServ - Pilsen,1711 W Garfield Blvd ,,,,Early Head Start,EXTENDED DAY,,,,,,,,,,,,,,,,,,,,,,,
2941,NAEYC_accreditation.csv, Loop Learning Center,2001 South Michigan Avenue  ,60616,2258828,,,,,,,,,,,,,,,,,,,,,,02/01/17,722736,,,
2045,DFSS_AgencySiteLies_2012.csv,"Chicago Public Schools Morgan, Garrett A.",8407 S. Kerfoot ,60620,5353366,,,,,,,Chicago Public Schools,,,,,,,,,,,www.cps.edu,Paula Cottone,Jerrold Washington,,,,,,
2134,DFSS_AgencySiteLies_2012.csv,Easter Seals Society of Metropolitan Chicago Lordanchild Daycare,3344 W 79th St ,60652,4344918,,,,,,,Easter Seals Society of Metropolitan Chicago,,,,,,,,,,,www.easterseaslchicago.org,Barbara Zawacki,Quentin Donald ,,,,,,
473,CPS_Early_Childhood_Portal_scrape.csv, Woodlawn Early Childhood Development,950 E. 61st Street ,,6673300,,Community Partnerships,"8-11 Hours, varies by facility",,,,,,,,,,,,,,,,,,,,,,,
3164,purple_binder_early_childhood.csv, Heartland Alliance for Human Needs and Human Rights - Learning Center,615 W Wellington Avenue ,60657,7511870,,,,,,,,,,,,,,,,,,,,,,,,,,Child Care
1874,chapin_dfss_providers_2011_070212.csv,SALVATION ARMY INCARNATION,1345 N KARLOV ,60651,2764118,,,,,,,SALVATION ARMY,HUMBOLDT PARK,,,,,Zoraida Fernandini,Yes,No,No,,,,,,,,,,
2607,ECE Chicago Find a School scrape.csv, Kozminski Com Acad,936 E. 54th St. ,60615,5350980,,,,,,Hyde Park,,,,,,,,,,,,,PFA-REG,,,,,,,
3184,purple_binder_early_childhood.csv, JCYS Lakeview Family Center,957 W Grace Street ,60613,2812533,,,,,,,,,,,,,,,,,,,,,,,,,,Child Care
2136,DFSS_AgencySiteLies_2012.csv,Easter Seals Society of Metropolitan Chicago Near South Side Child Development Center,2214 S Federal St ,60616,5483614,,,,,,,Easter Seals Society of Metropolitan Chicago,,,,,,,,,,,www.easterseaslchicago.org,Barbara Zawacki,Catherine Rokusek ,,,,,,
2785,ECE Chicago Find a School scrape.csv, Spry,2400 S. Marshall Bl ,60623,5341700,,,,,,South Lawndale,,,,,,,,,,,,,PFA-REG,,,,,,,
258,CPS_Early_Childhood_Portal_scrape.csv, Erie Neighborhood House,1701 W. Superior ,,5635800,,Community Partnerships,"8-11 Hours, varies by facility",,,,,,,,,,,,,,,,,,,,,,,
1100,CPS_Early_Childhood_Portal_scrape.csv, Lovett,6333 W. Bloomingdale ,,5343130,,Prekindergarten For All,3-4 hours,,,,,,,,,,,,,,,,,,,,,,,
409,CPS_Early_Childhood_Portal_scrape.csv, Lake Shore Schools - Clark,5611 N. Clark Street ,,5616707,,Community Partnerships,"8-11 Hours, varies by facility",,,,,,,,,,,,,,,,,,,,,,,
1357,IDHS_child_care_provider_list.csv," Paxton Day Care
Center",200 North Elm Street Paxton,60957,3793865,"(217)
379-6205",,,7766-4691-7433-009,,,,,,,,,,,,,,,,,,,,,,
2077,DFSS_AgencySiteLies_2012.csv,"Chicago Public Schools Stockton, Joseph",4423 N. Magnolia ,60640,5342510,,,,,,,Chicago Public Schools,,,,,,,,,,,www.cps.edu,Paula Cottone,Ms. Jill Besenjak,,,,,,
1793,chapin_dfss_providers_2011_070212.csv,HULL HOUSE ASSOCIATION KINGS KIDDIE KINGDOM,815 W 74TH ST ,60621,,,,,,,,HULL HOUSE ASSOCIATION,ENGLEWOOD,,,,,Camille King,Yes,No,No,,,,,,,,,,
657,CPS_Early_Childhood_Portal_scrape.csv, Gads Hill Center - Sinai Community/Ogden,2653 W Ogden Ave ,,5211196,,Head Start,HALF DAY/FULL DAY,,,,,,,,,,,,,,,,,,,,,,,
467,CPS_Early_Childhood_Portal_scrape.csv, Little Elite Academy,8748 S. Aberdeen ,,4487990,,Community Partnerships,"8-11 Hours, varies by facility",,,,,,,,,,,,,,,,,,,,,,,
2582,ECE Chicago Find a School scrape.csv, Irving Park Early Learning Ctr,3023 W. Montrose ,60618,5397422,,,,,,Irving Park,,,,,,,,,,,,,CP,,,,,,,
364,CPS_Early_Childhood_Portal_scrape.csv, Ada S. McKinley Maggie Drummond,4301 S. Wabash ,,3738200,,Community Partnerships,"8-11 Hours, varies by facility",,,,,,,,,,,,,,,,,,,,,,,
1558,chapin_dfss_providers_2011_070212.csv,"CHICAGO PUBLIC SCHOOLS O'KEEFFE, ISABELL C.",6940 S MERRILL ,60649,5350600,,,,,,,CHICAGO PUBLIC SCHOOLS,SOUTH SHORE,,,,,Mrs. Carolyn D.  Townes,Yes,No,No,,,,,,,,,,
1472,chapin_dfss_providers_2011_070212.csv,"CHICAGO PUBLIC SCHOOLS BEETHOVEN, LUDWIG V.",25 W 47TH ST ,60609,5351480,,,,,,,CHICAGO PUBLIC SCHOOLS,GRAND BOULEVARD,,,,,Ms. Dyrice Garner,Yes,No,No,,,,,,,,,,
1859,chapin_dfss_providers_2011_070212.csv,ONWARD NEIGHBORHOOD HOUSE NEW BEGINNINGS,5445 W NORTH AVENUE ,60639,3855365,,,,,,,ONWARD NEIGHBORHOOD HOUSE,AUSTIN,,,,,Verlene Vanderbilt,Yes,No,No,,,,,,,,,,
2367,ECE Chicago Find a School scrape.csv, Carter,5740 S. Michgan Ave. ,60637,5350860,,,,,,Washington Park,,,,,,,,,,,,,PFA-REG,,,,,,,
96,CPS_Early_Childhood_Portal_scrape.csv, YMCA of Metropolitan Chicago - South Chicago YMCA,3039 E 91st St ,,7219100,,Child Care,EXTENDED DAY,,,,,,,,,,,,,,,,,,,,,,,
1653,chapin_dfss_providers_2011_070212.csv,EL HOGAR DEL NINO FCCH-MARIA GUZMAN,5548 S TRIPP AVE ,60629,7354542,,,,,,,EL HOGAR DEL NINO,WEST ELSDON,,,,,,Yes,Yes,No,"5873PS(HS Collaboration with Childcare Homes), 5657IP(EHS Co",,,,,,,,,
546,CPS_Early_Childhood_Portal_scrape.csv," Brown Academy, R.",12607 S. Union ,,5355385,,Head Start,3-4 hours,,,,,,,,,,,,,,,,,,,,,,,
1166,CPS_Early_Childhood_Portal_scrape.csv, Marcy Newberry Association - FOSCO ABLA Center,1312 S Racine Ave ,,7466024,,School Age,PART DAY/FULL DAY,,,,,,,,,,,,,,,,,,,,,,,
522,CPS_Early_Childhood_Portal_scrape.csv, Kohn,10414 S. State St. ,,5355489,,Head Start,3-4 hours,,,,,,,,,,,,,,,,,,,,,,,
3325,purple_binder_early_childhood.csv, North Avenue Day Nursery,2001 W Pierce Street ,60622,3424499,,,,,,,,,,,,,,,,,,,,,,,,,,Early Head Start
2253,DFSS_AgencySiteLies_2012.csv,Onward Neighborhood House New Beginnings,5445 W. North Ave. ,60639,3855365,,,,,,,Onward Neighborhood House,,,,,,,,,,,www.onwardhouse.org,Mario Garcia,Verlene Vanderbilt,,,,,,
2233,DFSS_AgencySiteLies_2012.csv,Marcy Newberry Association Learning Tree 2,8322 S Pulaski Rd. ,60652,8843345,,,,,,,Marcy Newberry Association,,,,,,,,,,,www.marcy-newberry.org,Gertrude Ricks,Joanne Williams ,,,,,,
2885,NAEYC_accreditation.csv, Chesterfield Tom Thumb Day Care Center & Kindergarten,9208-9214 South Cottage Grove  ,60619,8743985,,,,,,,,,,,,,,,,,,,,,,09/30/13,564164,brittsavage@sbcglobal.net,,
3092,purple_binder_early_childhood.csv, Chicago Commons - Taylor Center School,1633 N Hamlin Avenue ,60647,2278551,,,,,,,,,,,,,,,,,,,,,,,,,,Child Care
2925,NAEYC_accreditation.csv, Howard Area Family Center,7510 N. Ashland Avenue  ,60626,7647610,,,,,,,,,,,,,,,,,,http://www.howardarea.org,,,,09/30/14,372557,skoliarakis@howardarea.org,,
1717,chapin_dfss_providers_2011_070212.csv,GADS HILL CENTER FCCH-SARA ORTEGA SITE,6110 S MOZART ,60629,2511196,,,,,,,GADS HILL CENTER,CHICAGO LAWN,,,,,Celina Orozco,No,No,No,"5707IP(EHS Collaboration Enhanced Home IP), 5713IT(Child Car",,,,,,,,,
1847,chapin_dfss_providers_2011_070212.csv,NORTH AVENUE DAY NURSERY FCCH-ROBBIE ANTHONY,5916 WEST SUPERIOR ,60644,2974124,,,,,,,NORTH AVENUE DAY NURSERY,AUSTIN,,,,,Sonja Anthony,No,Yes,No,"6124IP(EHS Collaboration Enhanced Home IP), 6125IT(Child Car",,,,,,,,,
456,CPS_Early_Childhood_Portal_scrape.csv," Terry Town Nursery School, Inc.",817 N. Hamlin ,,4894271,,Community Partnerships,"8-11 Hours, varies by facility",,,,,,,,,,,,,,,,,,,,,,,
2007,DFSS_AgencySiteLies_2012.csv,"Chicago Public Schools Goudy, William C.",5120 N. Winthrop ,60640,5342480,,,,,,,Chicago Public Schools,,,,,,,,,,,www.cps.edu,Paula Cottone,Pamela S. Brandt,,,,,,
1000,CPS_Early_Childhood_Portal_scrape.csv, Barry,2828 N. Kilbourn ,,5343455,,Prekindergarten For All,3-4 hours,,,,,,,,,,,,,,,,,,,,,,,
250,CPS_Early_Childhood_Portal_scrape.csv, Lutheran Social Services North Austin,1500 N. Mason ,,2371930,,Community Partnerships,"8-11 Hours, varies by facility",,,,,,,,,,,,,,,,,,,,,,,
2420,ECE Chicago Find a School scrape.csv, Christopher House Lakeshore,850 W. Eastwood ,60640,2719403,,,,,,Uptown,,,,,,,,,,,,,CP,,,,,,,
156,CPS_Early_Childhood_Portal_scrape.csv, Onward Neighborhood House - Onward Neighborhood House,600 N Leavitt St ,,6666726,,Child Care,EXTENDED DAY,,,,,,,,,,,,,,,,,,,,,,,
1364,IDHS_child_care_provider_list.csv," Tri-Con Child Care Center, Inc.","425 Laurel Avenue
Highland Park",60035,4331450,"(847)
433-1749",,,9795-2875-5433-009,,,,,,,,,,,,,,,,,,,,,,
3086,purple_binder_early_childhood.csv, Centers for New Horizons Washington Park,6225 S Wabash Avenue ,60637,6672065,,,,,,,,,,,,,,,,,,,,,,,,,,Child Care
690,CPS_Early_Childhood_Portal_scrape.csv, Bethel New Life - Lake and Pulaski,316 N Pulaski Rd ,,2653830,,Head Start,HALF DAY/FULL DAY,,,,,,,,,,,,,,,,,,,,,,,
416,CPS_Early_Childhood_Portal_scrape.csv, Boys & Girls Clubs John L. Yancey,6245 S. Wabash ,,3634733,,Community Partnerships,"8-11 Hours, varies by facility",,,,,,,,,,,,,,,,,,,,,,,
